{
  "0101": {
    "address": {
      "place": "M\u00fcnchen",
      "street": "Theresienstr. 90",
      "zip_code": 80333
    },
    "area_id": 27,
    "name": "(N1) H\u00f6rs\u00e4le (U-Trakt)",
    "tumonline_id": 561
  },
  "0102": {
    "address": {
      "place": "M\u00fcnchen",
      "street": "Theresienstr. 90",
      "zip_code": 80333
    },
    "area_id": 27,
    "name": "(N2) Hochvolthaus",
    "tumonline_id": 562
  },
  "0103": {
    "address": {
      "place": "M\u00fcnchen",
      "street": "Theresienstr. 90",
      "zip_code": 80333
    },
    "area_id": 27,
    "name": "(N3) El.Masch./Ger\u00e4te",
    "tumonline_id": 563
  },
  "0104": {
    "address": {
      "place": "M\u00fcnchen",
      "street": "Theresienstr. 90",
      "zip_code": 80333
    },
    "area_id": 27,
    "name": "(N4) Elektro Physik",
    "tumonline_id": 564
  },
  "0105": {
    "address": {
      "place": "M\u00fcnchen",
      "street": "Theresienstr. 90",
      "zip_code": 80333
    },
    "area_id": 27,
    "name": "(N5) Elektrotechnik",
    "tumonline_id": 565
  },
  "0106": {
    "address": {
      "place": "M\u00fcnchen",
      "street": "Theresienstr. 90",
      "zip_code": 80333
    },
    "area_id": 27,
    "name": "(N6) Materialpr\u00fcfamt",
    "tumonline_id": 566
  },
  "0108": {
    "address": {
      "place": "M\u00fcnchen",
      "street": "Theresienstr. 90",
      "zip_code": 80333
    },
    "area_id": 27,
    "name": "(N8) Verf\u00fcgungsgeb\u00e4ude",
    "tumonline_id": 567
  },
  "0109": {
    "address": {
      "place": "M\u00fcnchen",
      "street": "Theresienstr. 90",
      "zip_code": 80333
    },
    "area_id": 27,
    "name": "(N9) Reflexionsarmer Raum",
    "tumonline_id": 1849
  },
  "0201": {
    "address": {
      "place": "M\u00fcnchen",
      "street": "Gabelsbergerstr. 43",
      "zip_code": 80333
    },
    "area_id": 26,
    "name": "(S1) Gabelsbergerstr. 43, StudiTUM",
    "tumonline_id": 568
  },
  "0202": {
    "address": {
      "place": "M\u00fcnchen",
      "street": "Gabelsbergerstr. 39",
      "zip_code": 80333
    },
    "area_id": 26,
    "name": "(S2) Gabelsbergerstr. 39",
    "tumonline_id": 569
  },
  "0203": {
    "address": {
      "place": "M\u00fcnchen",
      "street": "Gabelsbergerstr. 45",
      "zip_code": 80333
    },
    "area_id": 26,
    "name": "(S3) Gabelsbergerstr. 45",
    "tumonline_id": 570
  },
  "0204": {
    "address": {
      "place": "M\u00fcnchen",
      "street": "Gabelsbergerstr. 49",
      "zip_code": 80333
    },
    "area_id": 26,
    "name": "(S4) Gabelsbergerstr. 49",
    "tumonline_id": 571
  },
  "0205": {
    "address": {
      "place": "M\u00fcnchen",
      "street": "Arcisstr. 19",
      "zip_code": 80333
    },
    "area_id": 26,
    "name": "(S5) Arcisstr. 19",
    "tumonline_id": 572
  },
  "0206": {
    "address": {
      "place": "M\u00fcnchen",
      "street": "Arcisstr. 17",
      "zip_code": 80333
    },
    "area_id": 26,
    "name": "(S6) Mensa Arcisstra\u00dfe 17",
    "tumonline_id": 573
  },
  "0305": {
    "address": {
      "place": "M\u00fcnchen",
      "street": "Barerstr. 21",
      "zip_code": 80333
    },
    "area_id": 25,
    "name": "(S\u00fcdost 5) Block D (ehem. LRZ)",
    "tumonline_id": 574
  },
  "0401": {
    "address": {
      "place": "M\u00fcnchen",
      "street": "Richard-Wagner-Str. 18",
      "zip_code": 80333
    },
    "area_id": 24,
    "name": "(SW1) Richard-Wagner-Str. 18",
    "tumonline_id": 575
  },
  "0403": {
    "address": {
      "place": "M\u00fcnchen",
      "street": "Richard-Wagner-Str. 14",
      "zip_code": 80333
    },
    "area_id": 24,
    "name": "(SW3) Friedrich Schiedel-Kindergarten (L",
    "tumonline_id": 576
  },
  "0501": {
    "address": {
      "place": "M\u00fcnchen",
      "street": "Arcisstr. 21",
      "zip_code": 80333
    },
    "area_id": 23,
    "name": "(Z1) Institutsbau",
    "tumonline_id": 577
  },
  "0502": {
    "address": {
      "place": "M\u00fcnchen",
      "street": "Arcisstr. 21",
      "zip_code": 80333
    },
    "area_id": 23,
    "name": "(Z2) Zentralgeb\u00e4ude 2",
    "tumonline_id": 578
  },
  "0503": {
    "address": {
      "place": "M\u00fcnchen",
      "street": "Arcisstr. 21",
      "zip_code": 80333
    },
    "area_id": 23,
    "name": "(Z3) Thierschbau",
    "tumonline_id": 579
  },
  "0504": {
    "address": {
      "place": "M\u00fcnchen",
      "street": "Arcisstr. 21",
      "zip_code": 80333
    },
    "area_id": 23,
    "name": "(Z4) Landwirtschaftsbau",
    "tumonline_id": 580
  },
  "0505": {
    "address": {
      "place": "M\u00fcnchen",
      "street": "Arcisstr. 21",
      "zip_code": 80333
    },
    "area_id": 23,
    "name": "(Z5) Wirtschaftswissenschaften",
    "tumonline_id": 581
  },
  "0506": {
    "address": {
      "place": "M\u00fcnchen",
      "street": "Arcisstr. 21",
      "zip_code": 80333
    },
    "area_id": 23,
    "name": "(Z6) Theresianum",
    "tumonline_id": 582
  },
  "0507": {
    "address": {
      "place": "M\u00fcnchen",
      "street": "Arcisstr. 21",
      "zip_code": 80333
    },
    "area_id": 23,
    "name": "(Z7) Zentralgeb\u00e4ude 7",
    "tumonline_id": 583
  },
  "0508": {
    "address": {
      "place": "M\u00fcnchen",
      "street": "Arcisstr. 21",
      "zip_code": 80333
    },
    "area_id": 23,
    "name": "(Z8) W\u00e4rmekraftwerk/Hydr.-Inst.",
    "tumonline_id": 584
  },
  "0509": {
    "address": {
      "place": "M\u00fcnchen",
      "street": "Arcisstr. 21",
      "zip_code": 80333
    },
    "area_id": 23,
    "name": "(Z9) Neubau Innenhof",
    "tumonline_id": 585
  },
  "0510": {
    "address": {
      "place": "M\u00fcnchen",
      "street": "Arcisstr. 21",
      "zip_code": 80333
    },
    "area_id": 23,
    "name": "(Z10) Verwaltungsbau",
    "tumonline_id": 586
  },
  "0511": {
    "address": {
      "place": "M\u00fcnchen",
      "street": "Arcisstr. 21",
      "zip_code": 80333
    },
    "area_id": 23,
    "name": "(Z11) Elektro/Werkstatt/L\u00f6sungsmittel-Bu",
    "tumonline_id": 587
  },
  "0512": {
    "address": {
      "place": "M\u00fcnchen",
      "street": "Arcisstr. 21",
      "zip_code": 80333
    },
    "area_id": 23,
    "name": "(Z12) Garagen",
    "tumonline_id": 588
  },
  "0597": {
    "address": {
      "place": "M\u00fcnchen",
      "street": "Arcisstr. 21",
      "zip_code": 80333
    },
    "area_id": 23,
    "name": "Vorplatz Audi-Max",
    "tumonline_id": 3309
  },
  "1501": {
    "address": {
      "place": "M\u00fcnchen",
      "street": "Ismaninger Str. 22",
      "zip_code": 81675
    },
    "area_id": 22,
    "name": "Chirurgische Klinik",
    "tumonline_id": 1037
  },
  "1503": {
    "address": {
      "place": "M\u00fcnchen",
      "street": "Ismaningerstr. 22",
      "zip_code": 81675
    },
    "area_id": 22,
    "name": "Augen, HNO, I.Med., III.Med.",
    "tumonline_id": 1772
  },
  "1514": {
    "address": {
      "place": "M\u00fcnchen",
      "street": "Trogerstr. 9",
      "zip_code": 81675
    },
    "area_id": 22,
    "name": "Interdisziplin\u00e4res Forschungsgeb\u00e4ude",
    "tumonline_id": 1035
  },
  "1533": {
    "address": {
      "place": "M\u00fcnchen",
      "street": "Trogerstr. 8",
      "zip_code": 81675
    },
    "area_id": 22,
    "name": "Trogerstr. 8, Pers.Rar-Sch.beh.",
    "tumonline_id": 1769
  },
  "1536": {
    "address": {
      "place": "M\u00fcnchen",
      "street": "Trogerstr. 14",
      "zip_code": 81675
    },
    "area_id": 22,
    "name": "Trogerstr. 14, Seminargeb\u00e4ude Geschichte",
    "tumonline_id": 1027
  },
  "1538": {
    "address": {
      "place": "M\u00fcnchen",
      "street": "Trogerstr. 18",
      "zip_code": 81675
    },
    "area_id": 22,
    "name": "Trogerstr. 18, Pathologie",
    "tumonline_id": 1029
  },
  "1545": {
    "address": {
      "place": "M\u00fcnchen",
      "street": "Ismaningerstr. 22",
      "zip_code": 81675
    },
    "area_id": 22,
    "name": "Mikrobiologie, Tierst\u00e4lle",
    "tumonline_id": 1771
  },
  "1548": {
    "address": {
      "place": "M\u00fcnchen",
      "street": "Schneckenburgerstr. 8",
      "zip_code": 81675
    },
    "area_id": 22,
    "name": "GSF-Container, Inst. Virologie",
    "tumonline_id": 1030
  },
  "1551": {
    "address": {
      "place": "M\u00fcnchen",
      "street": "Ismaninger Str. 22",
      "zip_code": 81675
    },
    "area_id": 22,
    "name": "A1-H\u00f6rs\u00e4le, Mensa",
    "tumonline_id": 1031
  },
  "1559": {
    "address": {
      "place": "M\u00fcnchen",
      "street": "Trogerstr. 30",
      "zip_code": 81675
    },
    "area_id": 22,
    "name": "Mikrobiologie/Virologie",
    "tumonline_id": 1033
  },
  "1601": {
    "address": {
      "place": "M\u00fcnchen",
      "street": "Biedersteiner Str. 29",
      "zip_code": 80802
    },
    "area_id": 21,
    "name": "Altbau 1, Vorklinik. Inst.",
    "tumonline_id": 1018
  },
  "1602": {
    "address": {
      "place": "M\u00fcnchen",
      "street": "Biedersteiner Str. 29",
      "zip_code": 80802
    },
    "area_id": 21,
    "name": "Altbau 2+3, Anatomisches Institut",
    "tumonline_id": 1019
  },
  "1603": {
    "address": {
      "place": "M\u00fcnchen",
      "street": "Biedersteiner Str. 29",
      "zip_code": 80802
    },
    "area_id": 21,
    "name": "Altbau 2+3, Biologisches Institut",
    "tumonline_id": 1020
  },
  "1607": {
    "address": {
      "place": "M\u00fcnchen",
      "street": "Dietlindenstr./Biedersteiner Str. 29",
      "zip_code": 80802
    },
    "area_id": 21,
    "name": "Altbau 7, Institut f\u00fcr Pharmakologie und",
    "tumonline_id": 1021
  },
  "1608": {
    "address": {
      "place": "M\u00fcnchen",
      "street": "Dietlindenstr./Biedersteiner Str. 29",
      "zip_code": 80802
    },
    "area_id": 21,
    "name": "Altbau 8, Institut f\u00fcr Medizinische Mikr",
    "tumonline_id": 1022
  },
  "1650": {
    "address": {
      "place": "M\u00fcnchen",
      "street": "Dietlindenstr./Biedersteiner Str. 29",
      "zip_code": 80802
    },
    "area_id": 21,
    "name": "Tierstall f. Pharmakologie",
    "tumonline_id": 1023
  },
  "1652": {
    "address": {
      "place": "M\u00fcnchen",
      "street": "Dietlindenstr./Biedersteiner Str. 29",
      "zip_code": 80802
    },
    "area_id": 21,
    "name": "Tierst\u00e4lle",
    "tumonline_id": 1024
  },
  "1713": {
    "address": {
      "place": "M\u00fcnchen",
      "street": "Nigerstr. 3",
      "zip_code": 81675
    },
    "area_id": 29,
    "name": "Nigerstr. 3 (AM)",
    "tumonline_id": 1036
  },
  "1724": {
    "address": {
      "place": "M\u00fcnchen",
      "street": "Prinzregentenstra\u00dfe 68",
      "zip_code": 81675
    },
    "area_id": 29,
    "name": "Prinzregentenstr. 68 (AM) MRI",
    "tumonline_id": 2309
  },
  "1740": {
    "address": {
      "place": "M\u00fcnchen",
      "street": "Neherstra\u00dfe 1",
      "zip_code": 81675
    },
    "area_id": 29,
    "name": "Neherstr.1 (AM) ForTe",
    "tumonline_id": 2909
  },
  "1901": {
    "address": {
      "place": "Heilbronn",
      "street": "Bildungscampus 2",
      "zip_code": 74076
    },
    "area_id": 243,
    "name": "Bildungscampus D",
    "tumonline_id": 2369
  },
  "1902": {
    "address": {
      "place": "Heilbronn",
      "street": "Bildungscampus 9",
      "zip_code": 74076
    },
    "area_id": 243,
    "name": "Bildungscampus L",
    "tumonline_id": 2370
  },
  "1910": {
    "address": {
      "place": "Heilbronn",
      "street": "Weipertstr. 8-10",
      "zip_code": 74076
    },
    "area_id": 243,
    "name": "Bildungscampus C",
    "tumonline_id": 3189
  },
  "1915": {
    "address": {
      "place": "Heilbronn",
      "street": "Etzelstr. 38",
      "zip_code": 74076
    },
    "area_id": 243,
    "name": "Bildungscampus/Etzelstr.38",
    "tumonline_id": 3191
  },
  "1998": {
    "address": {
      "place": "Heilbronn",
      "street": "Bildungscampus 3",
      "zip_code": 74076
    },
    "area_id": 243,
    "name": "Interim, Bildungscampus 3",
    "tumonline_id": 3289
  },
  "1999": {
    "address": {
      "place": "Heilbronn",
      "street": "Weipertstr. 8-10",
      "zip_code": 74076
    },
    "area_id": 243,
    "name": "Containerburg CB",
    "tumonline_id": 3190
  },
  "2103": {
    "address": {
      "place": "M\u00fcnchen",
      "street": "Schragenhofstr. 31",
      "zip_code": 80992
    },
    "area_id": 20,
    "name": "Werkstattgeb\u00e4ude",
    "tumonline_id": 614
  },
  "2104": {
    "address": {
      "place": "M\u00fcnchen",
      "street": "Schragenhofstr. 31",
      "zip_code": 80992
    },
    "area_id": 20,
    "name": "Laborgeb\u00e4ude",
    "tumonline_id": 615
  },
  "2105": {
    "address": {
      "place": "M\u00fcnchen",
      "street": "Schragenhofstr. 31",
      "zip_code": 80992
    },
    "area_id": 20,
    "name": "Trafo und Lager",
    "tumonline_id": 616
  },
  "2106": {
    "address": {
      "place": "M\u00fcnchen",
      "street": "Schragenhofstr. 31",
      "zip_code": 80992
    },
    "area_id": 20,
    "name": "Pforte",
    "tumonline_id": 617
  },
  "2107": {
    "address": {
      "place": "M\u00fcnchen",
      "street": "Schragenhofstr. 31",
      "zip_code": 80992
    },
    "area_id": 20,
    "name": "Institutsgeb\u00e4ude",
    "tumonline_id": 618
  },
  "2108": {
    "address": {
      "place": "M\u00fcnchen",
      "street": "Schragenhofstr. 31",
      "zip_code": 80992
    },
    "area_id": 20,
    "name": "Bunker",
    "tumonline_id": 619
  },
  "2109": {
    "address": {
      "place": "M\u00fcnchen",
      "street": "Schragenhofstr. 31",
      "zip_code": 80992
    },
    "area_id": 20,
    "name": "Tankstelle",
    "tumonline_id": 620
  },
  "2309": {
    "address": {
      "place": "M\u00fcnchen",
      "street": "Connollystr. 32",
      "zip_code": 80809
    },
    "area_id": 18,
    "name": "(SZ) Tennis Geb\u00e4ude",
    "tumonline_id": 607
  },
  "2310": {
    "address": {
      "place": "M\u00fcnchen",
      "street": "Connollystr. 32",
      "zip_code": 80809
    },
    "area_id": 18,
    "name": "(SZ) Tennisanlagen",
    "tumonline_id": 608
  },
  "2312": {
    "address": {
      "place": "M\u00fcnchen",
      "street": "Connollystr. 32",
      "zip_code": 80809
    },
    "area_id": 18,
    "name": "(SZ) Sport-, Aussenanlagen/Teil-Umbau",
    "tumonline_id": 610
  },
  "2313": {
    "address": {
      "place": "M\u00fcnchen",
      "street": "Connollystr. 32",
      "zip_code": 80809
    },
    "area_id": 18,
    "name": "(SZ) Wetterschutzhaus",
    "tumonline_id": 611
  },
  "2315": {
    "address": {
      "place": "M\u00fcnchen",
      "street": "Connollystr. 32",
      "zip_code": 80809
    },
    "area_id": 18,
    "name": "(SZ) Pr\u00e4ventionszentrum",
    "tumonline_id": 612
  },
  "2317": {
    "address": {
      "place": "M\u00fcnchen",
      "street": "Connollystr. 32",
      "zip_code": 80809
    },
    "area_id": 18,
    "name": "(SZ) Kletterturm Campus im Olympiapark",
    "tumonline_id": 2769
  },
  "2318": {
    "address": {
      "place": "M\u00fcnchen",
      "street": "Connollystr. 32",
      "zip_code": 80809
    },
    "area_id": 18,
    "name": "(SZ) Boulderturm im Campus im Olympiapar",
    "tumonline_id": 2772
  },
  "2319": {
    "address": {
      "place": "M\u00fcnchen",
      "street": "Connollystr. 32",
      "zip_code": 80809
    },
    "area_id": 18,
    "name": "(SZ) KBA Kletter- und Boulderanlage Outd",
    "tumonline_id": 2770
  },
  "2320": {
    "address": {
      "place": "M\u00fcnchen",
      "street": "Connollystr. 32",
      "zip_code": 80809
    },
    "area_id": 18,
    "name": "(SZ) FIA Fitnessanlage Outdoor",
    "tumonline_id": 2771
  },
  "2321": {
    "address": {
      "place": "M\u00fcnchen",
      "street": "Connollystr. 32",
      "zip_code": 80809
    },
    "area_id": 18,
    "name": "(SZ) Rasenspielpl\u00e4tze/Teil-Umbauten",
    "tumonline_id": 613
  },
  "2330": {
    "address": {
      "place": "M\u00fcnchen",
      "street": "Connollystr. 32",
      "zip_code": 80809
    },
    "area_id": 18,
    "name": "CiO/SG - rue, Seminarr\u00e4ume",
    "tumonline_id": 2749
  },
  "2331": {
    "address": {
      "place": "M\u00fcnchen",
      "street": "Connollystr. 32",
      "zip_code": 80809
    },
    "area_id": 18,
    "name": "CiO/SG - Hallen West, Cafeteria",
    "tumonline_id": 2609
  },
  "2332": {
    "address": {
      "place": "M\u00fcnchen",
      "street": "Connollystr. 32",
      "zip_code": 80809
    },
    "area_id": 18,
    "name": "CiO/SG - Institute Ost",
    "tumonline_id": 2829
  },
  "2333": {
    "address": {
      "place": "M\u00fcnchen",
      "street": "Connollystr. 32",
      "zip_code": 80809
    },
    "area_id": 18,
    "name": "CiO/SG - Hallen Ost",
    "tumonline_id": 2809
  },
  "2334": {
    "address": {
      "place": "M\u00fcnchen",
      "street": "Connollystr. 32",
      "zip_code": 80809
    },
    "area_id": 18,
    "name": "CiO/SG - Institute West, Bibliothek",
    "tumonline_id": 2789
  },
  "2350": {
    "address": {
      "place": "M\u00fcnchen",
      "street": "Spiridon-Louis-Ring",
      "zip_code": 80809
    },
    "area_id": 18,
    "name": "(SZ) Olympiaschwimmhalle (AM)",
    "tumonline_id": 1015
  },
  "2351": {
    "address": {
      "place": "M\u00fcnchen",
      "street": "Olympiapark M\u00fcnchen",
      "zip_code": 80809
    },
    "area_id": 18,
    "name": "(SZ) Olympia-Eislaufstadion (AM)",
    "tumonline_id": 1016
  },
  "2352": {
    "address": {
      "place": "M\u00fcnchen",
      "street": "Olympiapark M\u00fcnchen",
      "zip_code": 80809
    },
    "area_id": 18,
    "name": "(SZ) Olympiapark (AM)",
    "tumonline_id": 1017
  },
  "2353": {
    "address": {
      "place": "M\u00fcnchen",
      "street": "Staudingerstr.",
      "zip_code": 81737
    },
    "area_id": 18,
    "name": "(SZ) Eislaufstadion Ost (AM)",
    "tumonline_id": 1060
  },
  "2354": {
    "address": {
      "place": "Oberschlei\u00dfheim",
      "street": "Regattaanlage Oberschlei\u00dfheim",
      "zip_code": 85764
    },
    "area_id": 18,
    "name": "(SZ) Regattaanlage Oberschlei\u00dfheim (AM)",
    "tumonline_id": 1039
  },
  "2364": {
    "address": {
      "place": "M\u00fcnchen",
      "street": "Connollystr. 32",
      "zip_code": 80809
    },
    "area_id": 18,
    "name": "Wetterschutzhaus / WSH 1",
    "tumonline_id": 3274
  },
  "2365": {
    "address": {
      "place": "M\u00fcnchen",
      "street": "Connollystr. 32",
      "zip_code": 80809
    },
    "area_id": 18,
    "name": "Wetterschutzhaus / WSH 2",
    "tumonline_id": 3271
  },
  "2367": {
    "address": {
      "place": "M\u00fcnchen",
      "street": "Connollystr. 32",
      "zip_code": 80809
    },
    "area_id": 18,
    "name": "Wetterschutzhaus / WSH 4",
    "tumonline_id": 3270
  },
  "2368": {
    "address": {
      "place": "M\u00fcnchen",
      "street": "Connollystr. 32",
      "zip_code": 80809
    },
    "area_id": 18,
    "name": "Wetterschutzhaus / WSH 5",
    "tumonline_id": 3269
  },
  "2369": {
    "address": {
      "place": "M\u00fcnchen",
      "street": "Connollystr. 32",
      "zip_code": 80809
    },
    "area_id": 18,
    "name": "Wetterschutzhaus / WSH 6",
    "tumonline_id": 3272
  },
  "2401": {
    "address": {
      "place": "M\u00fcnchen",
      "street": "Winzererstr. 45",
      "zip_code": 80797
    },
    "area_id": 17,
    "name": "Holzforschung M\u00fcnchen Altbau",
    "tumonline_id": 595
  },
  "2402": {
    "address": {
      "place": "M\u00fcnchen",
      "street": "Winzererstr. 45",
      "zip_code": 80797
    },
    "area_id": 17,
    "name": "Holzforschung M\u00fcnchen Neubau",
    "tumonline_id": 596
  },
  "2410": {
    "address": {
      "place": "M\u00fcnchen",
      "street": "He\u00dfstr. 134",
      "zip_code": 80797
    },
    "area_id": 17,
    "name": "He\u00dfstr. 134 (UMBAU)",
    "tumonline_id": 2210
  },
  "2522": {
    "address": {
      "place": "M\u00fcnchen",
      "street": "Einsteinstr. 25",
      "zip_code": 81675
    },
    "area_id": 22,
    "name": "Center for Translational Cancer Research",
    "tumonline_id": 2129
  },
  "2601": {
    "address": {
      "place": "M\u00fcnchen",
      "street": "Franz-Langinger-Str. 10",
      "zip_code": 81245
    },
    "area_id": 16,
    "name": "Institut f\u00fcr Grundbau  und Bodenmechanik",
    "tumonline_id": 621
  },
  "2602": {
    "address": {
      "place": "M\u00fcnchen",
      "street": "Franz-Langinger-Str. 10",
      "zip_code": 81245
    },
    "area_id": 16,
    "name": "Institut f\u00fcr Eisenbahn und Landverkehrsw",
    "tumonline_id": 622
  },
  "2604": {
    "address": {
      "place": "M\u00fcnchen",
      "street": "Franz-Langinger-Str. 10",
      "zip_code": 81245
    },
    "area_id": 16,
    "name": "Laborbau",
    "tumonline_id": 623
  },
  "2605": {
    "address": {
      "place": "M\u00fcnchen",
      "street": "Franz-Langinger-Str. 10",
      "zip_code": 81245
    },
    "area_id": 16,
    "name": "Verwaltungsbau",
    "tumonline_id": 624
  },
  "2607": {
    "address": {
      "place": "M\u00fcnchen",
      "street": "Franz-Langinger-Str. 10",
      "zip_code": 81245
    },
    "area_id": 16,
    "name": "Fahrzeughalle",
    "tumonline_id": 625
  },
  "2801": {
    "address": {
      "place": "M\u00fcnchen",
      "street": "Elisabeth-Winterhalter-Weg 6",
      "zip_code": 81377
    },
    "area_id": 15,
    "name": "Elisabeth-Winterhalter-Weg (NR)",
    "tumonline_id": 628
  },
  "2803": {
    "address": {
      "place": "M\u00fcnchen",
      "street": "Museumsinsel 1",
      "zip_code": 80538
    },
    "area_id": 29,
    "name": "Forum der Zukunft (AM)",
    "tumonline_id": 3049
  },
  "2804": {
    "address": {
      "place": "M\u00fcnchen",
      "street": "Museumsinsel 1",
      "zip_code": 80538
    },
    "area_id": 29,
    "name": "Deutsches Museum, Museumsinsel 1 (NR)",
    "tumonline_id": 593
  },
  "2805": {
    "address": {
      "place": "Dachau",
      "street": "Karl-Benz-Str. 15",
      "zip_code": 85221
    },
    "area_id": 47,
    "name": "Dachau, Karl-Benz-Str. (AM)",
    "tumonline_id": 652
  },
  "2806": {
    "address": {
      "place": "M\u00fcnchen",
      "street": "Oettingenstr. 15",
      "zip_code": 80538
    },
    "area_id": 29,
    "name": "Werkstattgeb\u00e4ude National Museum (NR)",
    "tumonline_id": 594
  },
  "2807": {
    "address": {
      "place": "M\u00fcnchen",
      "street": "Barerstr. 40",
      "zip_code": 80799
    },
    "area_id": 29,
    "name": "Pinakothek der Moderne (NR)",
    "tumonline_id": 597
  },
  "2808": {
    "address": {
      "place": "Trostberg",
      "street": "Dr. Albert-Frank-Str. 32",
      "zip_code": 83308
    },
    "area_id": 98,
    "name": "Forschungszentrum f. Bauchemie (NR)",
    "tumonline_id": 1445
  },
  "2903": {
    "address": {
      "place": "M\u00fcnchen",
      "street": "Augustenstr. 44_46",
      "zip_code": 80333
    },
    "area_id": 29,
    "name": "Haus Soller Augustenstr. 44_46 (AM)",
    "tumonline_id": 589
  },
  "2906": {
    "address": {
      "place": "M\u00fcnchen",
      "street": "Karlstr. 45-47",
      "zip_code": 80333
    },
    "area_id": 29,
    "name": "Karlstra\u00dfe 45/47 (AM)",
    "tumonline_id": 995
  },
  "2907": {
    "address": {
      "place": "M\u00fcnchen",
      "street": "Marsstr. 20-22",
      "zip_code": 80335
    },
    "area_id": 29,
    "name": "Marsstr. 20/22 (AM)",
    "tumonline_id": 1485
  },
  "2908": {
    "address": {
      "place": "M\u00fcnchen",
      "street": "Marsstra\u00dfe 40",
      "zip_code": 80335
    },
    "area_id": 29,
    "name": "Marsstr. 40  (AM)",
    "tumonline_id": 1810
  },
  "2909": {
    "address": {
      "place": "M\u00fcnchen",
      "street": "Denisstr. 1B",
      "zip_code": 80333
    },
    "area_id": 29,
    "name": "(AM) Denisstr. 1B, R\u00fcckgeb\u00e4ude",
    "tumonline_id": 2209
  },
  "2910": {
    "address": {
      "place": "M\u00fcnchen",
      "street": "Richard-Wagner-Str. 1",
      "zip_code": 80333
    },
    "area_id": 29,
    "name": "RiWa Nr. 1/Haus B + Haus H",
    "tumonline_id": 1929
  },
  "2911": {
    "address": {
      "place": "M\u00fcnchen",
      "street": "Richard-Wagner-Str. 3",
      "zip_code": 80333
    },
    "area_id": 29,
    "name": "RiWa Nr. 3/Haus C",
    "tumonline_id": 1889
  },
  "2912": {
    "address": {
      "place": "M\u00fcnchen",
      "street": "Augustenstr. 40",
      "zip_code": 80333
    },
    "area_id": 29,
    "name": "Brienner Forum Haus E (AM)",
    "tumonline_id": 3250
  },
  "2913": {
    "address": {
      "place": "M\u00fcnchen",
      "street": "Augustenstr. 40",
      "zip_code": 80333
    },
    "area_id": 29,
    "name": "Brienner Forum Haus F(AM)",
    "tumonline_id": 3249
  },
  "2920": {
    "address": {
      "place": "M\u00fcnchen",
      "street": "Gabelsbergerstr. 47",
      "zip_code": 80333
    },
    "area_id": 29,
    "name": "Gabelsbergerstr. 47 (AM)",
    "tumonline_id": 2189
  },
  "2926": {
    "address": {
      "place": "M\u00fcnchen",
      "street": "Leopoldstr. 139/145",
      "zip_code": 80804
    },
    "area_id": 29,
    "name": "Leopoldstr. 139/145 (AM)",
    "tumonline_id": 598
  },
  "2927": {
    "address": {
      "place": "Straubing",
      "street": "Petersgasse 18",
      "zip_code": 94315
    },
    "area_id": 50,
    "name": "TUM CS PG18 (AM)",
    "tumonline_id": 878
  },
  "2929": {
    "address": {
      "place": "Straubing",
      "street": "Schulgasse 20",
      "zip_code": 94315
    },
    "area_id": 50,
    "name": "TUM CS SG20 (AM)",
    "tumonline_id": 1525
  },
  "2940": {
    "address": {
      "place": "M\u00fcnchen",
      "street": "Georg-Brauchle-Ring 50_66",
      "zip_code": 80992
    },
    "area_id": 29,
    "name": "Campus C   (AM)",
    "tumonline_id": 1285
  },
  "2941": {
    "address": {
      "place": "M\u00fcnchen",
      "street": "Georg-Brauchle-Ring 60_62",
      "zip_code": 80992
    },
    "area_id": 29,
    "name": "Campus D   (AM)",
    "tumonline_id": 1245
  },
  "2944": {
    "address": {
      "place": "M\u00fcnchen",
      "street": "Freddie-Mercury-Str. 5",
      "zip_code": 80636
    },
    "area_id": 29,
    "name": "Munich Urban Colab",
    "tumonline_id": 2869
  },
  "3035": {
    "address": {
      "place": "Oberschlei\u00dfheim",
      "street": "Ingolst\u00e4dter Landstr. 1",
      "zip_code": 85764
    },
    "area_id": 79,
    "name": "Helmholtz Biologikum",
    "tumonline_id": 1141
  },
  "3100": {
    "address": {
      "place": "M\u00fclverstedt",
      "street": "Am Burghof 3",
      "zip_code": 99947
    },
    "area_id": 79,
    "name": "Projektb\u00fcro Hainich",
    "tumonline_id": 1545
  },
  "3101": {
    "address": {
      "place": "Obernach",
      "street": "Obernach/Walchensee 15",
      "zip_code": 82432
    },
    "area_id": 49,
    "name": "Obernach B\u00fcrogeb\u00e4ude",
    "tumonline_id": 909
  },
  "3102": {
    "address": {
      "place": "Obernach",
      "street": "Obernach/Walchensee 15",
      "zip_code": 82432
    },
    "area_id": 49,
    "name": "Obernach Vesuchshalle 1",
    "tumonline_id": 910
  },
  "3103": {
    "address": {
      "place": "Obernach",
      "street": "Obernach/Walchensee 15",
      "zip_code": 82432
    },
    "area_id": 49,
    "name": "Obernach Werkst\u00e4tten",
    "tumonline_id": 911
  },
  "3104": {
    "address": {
      "place": "Obernach",
      "street": "Obernach/Walchensee 15",
      "zip_code": 82432
    },
    "area_id": 49,
    "name": "Obernach Unterstelle",
    "tumonline_id": 912
  },
  "3105": {
    "address": {
      "place": "Obernach",
      "street": "Obernach/Walchensee 15",
      "zip_code": 82432
    },
    "area_id": 49,
    "name": "Obernach Archiv/Bibliothek",
    "tumonline_id": 913
  },
  "3106": {
    "address": {
      "place": "Obernach",
      "street": "Obernach/Walchensee 15",
      "zip_code": 82432
    },
    "area_id": 49,
    "name": "Obernach Lagerhalle",
    "tumonline_id": 914
  },
  "3107": {
    "address": {
      "place": "Obernach",
      "street": "Obernach/Walchensee 15",
      "zip_code": 82432
    },
    "area_id": 49,
    "name": "Obernach Freifl\u00e4che",
    "tumonline_id": 915
  },
  "3108": {
    "address": {
      "place": "Obernach",
      "street": "Obernach/Walchensee 15",
      "zip_code": 82432
    },
    "area_id": 49,
    "name": "Obernach Blockhaus",
    "tumonline_id": 916
  },
  "3109": {
    "address": {
      "place": "Obernach",
      "street": "Obernach/Walchensee 15",
      "zip_code": 82432
    },
    "area_id": 49,
    "name": "Obernach Geschiebelager",
    "tumonline_id": 917
  },
  "3110": {
    "address": {
      "place": "Obernach",
      "street": "Obernach/Walchensee 15",
      "zip_code": 82432
    },
    "area_id": 49,
    "name": "Obernach Steuerhaus",
    "tumonline_id": 918
  },
  "3111": {
    "address": {
      "place": "Obernach",
      "street": "Obernach/Walchensee 15",
      "zip_code": 82432
    },
    "area_id": 49,
    "name": "Obernach Messh\u00fctte",
    "tumonline_id": 919
  },
  "3112": {
    "address": {
      "place": "Obernach",
      "street": "Obernach/Walchensee 15",
      "zip_code": 82432
    },
    "area_id": 49,
    "name": "Obernach Trafostation",
    "tumonline_id": 920
  },
  "3113": {
    "address": {
      "place": "Obernach",
      "street": "Obernach/Walchensee 15",
      "zip_code": 82432
    },
    "area_id": 49,
    "name": "Obernach Pumpstation 2",
    "tumonline_id": 921
  },
  "3114": {
    "address": {
      "place": "Obernach",
      "street": "Obernach/Walchensee 15",
      "zip_code": 82432
    },
    "area_id": 49,
    "name": "Obernach Pumpstation 3",
    "tumonline_id": 922
  },
  "3115": {
    "address": {
      "place": "Obernach",
      "street": "Obernach/Walchensee 15",
      "zip_code": 82432
    },
    "area_id": 49,
    "name": "Obernach Pumpstation 4",
    "tumonline_id": 923
  },
  "3116": {
    "address": {
      "place": "Obernach",
      "street": "Obernach/Walchensee 15",
      "zip_code": 82432
    },
    "area_id": 49,
    "name": "Obernach Versuchshalle 2",
    "tumonline_id": 924
  },
  "3117": {
    "address": {
      "place": "Obernach",
      "street": "Obernach/Walchensee 15",
      "zip_code": 82432
    },
    "area_id": 49,
    "name": "Obernach Holz-/Baulager",
    "tumonline_id": 925
  },
  "3118": {
    "address": {
      "place": "Obernach",
      "street": "Obernach/Walchensee 15",
      "zip_code": 82432
    },
    "area_id": 49,
    "name": "Obernach Steuerhaus 2",
    "tumonline_id": 926
  },
  "3119": {
    "address": {
      "place": "Obernach",
      "street": "Obernach/Walchensee 15",
      "zip_code": 82432
    },
    "area_id": 49,
    "name": "Obernach Turbinenhaus",
    "tumonline_id": 927
  },
  "3120": {
    "address": {
      "place": "Obernach",
      "street": "Obernach/Walchensee 15",
      "zip_code": 82432
    },
    "area_id": 49,
    "name": "Obernach Tiefbrunnen",
    "tumonline_id": 928
  },
  "3121": {
    "address": {
      "place": "Obernach",
      "street": "Obernach/Walchensee 15",
      "zip_code": 82432
    },
    "area_id": 49,
    "name": "Obernach Modellaustellung",
    "tumonline_id": 929
  },
  "3122": {
    "address": {
      "place": "Obernach",
      "street": "Obernach/Walchensee 15",
      "zip_code": 82432
    },
    "area_id": 49,
    "name": "Obernach Folienhalle",
    "tumonline_id": 2509
  },
  "3123": {
    "address": {
      "place": "Obernach",
      "street": "Obernach/Walchensee 15",
      "zip_code": 82432
    },
    "area_id": 49,
    "name": "Obernach Fl\u00fcssiggastank",
    "tumonline_id": 2510
  },
  "3124": {
    "address": {
      "place": "Obernach",
      "street": "Obernach/Walchensee 15",
      "zip_code": 82432
    },
    "area_id": 49,
    "name": "Obernach unterirdischer Wasserbeh\u00e4lter",
    "tumonline_id": 2511
  },
  "3201": {
    "address": {
      "place": "Eichenau",
      "street": "Lindenweg 15",
      "zip_code": 82223
    },
    "area_id": 53,
    "name": "Eichenau Lindenweg Max-Knei\u00dfl-Institut",
    "tumonline_id": 633
  },
  "3401": {
    "address": {
      "place": "M\u00fcnchen",
      "street": "Alfons-Goppel-Str. 11",
      "zip_code": 80333
    },
    "area_id": 29,
    "name": "Akademiegeb\u00e4ude in der Residenz (NR)",
    "tumonline_id": 1710
  },
  "3402": {
    "address": {
      "place": "M\u00fcnchen",
      "street": "Alfons-Goppel-Str. 11",
      "zip_code": 80333
    },
    "area_id": 29,
    "name": "Residenzbereich Hofkapelle (NR)",
    "tumonline_id": 1709
  },
  "3501": {
    "address": {
      "place": "Straubing",
      "street": "Schulgasse 16",
      "zip_code": 94315
    },
    "area_id": 50,
    "name": "TUM CS SG16",
    "tumonline_id": 877
  },
  "3502": {
    "address": {
      "place": "Straubing",
      "street": "Schulgasse 22",
      "zip_code": 94315
    },
    "area_id": 50,
    "name": "TUM CS SG22 (AM)",
    "tumonline_id": 1729
  },
  "3503": {
    "address": {
      "place": "Straubing",
      "street": "Petersgasse 5",
      "zip_code": 94315
    },
    "area_id": 50,
    "name": "TUM CS PG05",
    "tumonline_id": 2130
  },
  "3504": {
    "address": {
      "place": "Straubing",
      "street": "Schulgasse 22a",
      "zip_code": 94315
    },
    "area_id": 50,
    "name": "TUM CS SG22a",
    "tumonline_id": 2249
  },
  "3505": {
    "address": {
      "place": "Straubing",
      "street": "Uferstra\u00dfe 53",
      "zip_code": 94315
    },
    "area_id": 50,
    "name": "TUMCS H\u00f6rsaal und Forschungsgeb\u00e4ude f\u00fcr",
    "tumonline_id": 2649
  },
  "3515": {
    "address": {
      "place": "Straubing",
      "street": "Am Essigberg 3",
      "zip_code": 94315
    },
    "area_id": 50,
    "name": "TUM CS Essigberg 3 (AM)",
    "tumonline_id": 2389
  },
  "3901": {
    "address": {
      "place": "Starnberg",
      "street": "Unterer Seeweg 5",
      "zip_code": 82319
    },
    "area_id": 48,
    "name": "Starnberg Kiosk",
    "tumonline_id": 645
  },
  "3902": {
    "address": {
      "place": "Starnberg",
      "street": "Unterer Seeweg 5",
      "zip_code": 82319
    },
    "area_id": 48,
    "name": "Starnberg Seglerheim",
    "tumonline_id": 646
  },
  "3904": {
    "address": {
      "place": "Starnberg",
      "street": "Unterer Seeweg 5",
      "zip_code": 82319
    },
    "area_id": 48,
    "name": "Starnberg Bootshaus",
    "tumonline_id": 644
  },
  "4001": {
    "address": {
      "place": "Freising",
      "street": "Oberer Schlangenweg",
      "zip_code": 85354
    },
    "area_id": 43,
    "name": "Ruine der Korbinians Kapelle",
    "tumonline_id": 2049
  },
  "4101": {
    "address": {
      "place": "Freising",
      "street": "Alte Akademie 1-3",
      "zip_code": 85354
    },
    "area_id": 43,
    "name": "Verwaltungsstelle / BLQ Brau- und Lebens",
    "tumonline_id": 715
  },
  "4102": {
    "address": {
      "place": "Freising",
      "street": "Alte Akademie 8",
      "zip_code": 85354
    },
    "area_id": 43,
    "name": "H\u00f6rsaal- und Dekanatsgeb\u00e4ude",
    "tumonline_id": 716
  },
  "4103": {
    "address": {
      "place": "Freising",
      "street": "Alte Akademie 8a",
      "zip_code": 85354
    },
    "area_id": 43,
    "name": "Sammlungsbau",
    "tumonline_id": 717
  },
  "4105": {
    "address": {
      "place": "Freising",
      "street": "Alte Akademie 12",
      "zip_code": 85354
    },
    "area_id": 43,
    "name": "Institutsgeb\u00e4ude I",
    "tumonline_id": 719
  },
  "4106": {
    "address": {
      "place": "Freising",
      "street": "Alte Akademie 14",
      "zip_code": 85354
    },
    "area_id": 43,
    "name": "Institutsgeb\u00e4ude II",
    "tumonline_id": 720
  },
  "4107": {
    "address": {
      "place": "Freising",
      "street": "Alte Akademie 16",
      "zip_code": 85354
    },
    "area_id": 43,
    "name": "Institutsgeb\u00e4ude III",
    "tumonline_id": 721
  },
  "4108": {
    "address": {
      "place": "Freising",
      "street": "Alte Akademie 10",
      "zip_code": 85354
    },
    "area_id": 43,
    "name": "BLQ Lebensmittelsicherheit, H\u00f6rsaal 8&9",
    "tumonline_id": 722
  },
  "4109": {
    "address": {
      "place": "Freising",
      "street": "Weihenstephaner Steig 22",
      "zip_code": 85354
    },
    "area_id": 43,
    "name": "Campus Office",
    "tumonline_id": 723
  },
  "4110": {
    "address": {
      "place": "Freising",
      "street": "Weihenstephaner Steig 20",
      "zip_code": 85354
    },
    "area_id": 43,
    "name": "Brau- und Getr\u00e4nketechnologie",
    "tumonline_id": 724
  },
  "4111": {
    "address": {
      "place": "Freising",
      "street": "Weihenstephaner Steig 18",
      "zip_code": 85354
    },
    "area_id": 43,
    "name": "Forschungsbrauerei Weihenstephan - mit N",
    "tumonline_id": 725
  },
  "4113": {
    "address": {
      "place": "Freising",
      "street": "Weihenstephaner Steig 16",
      "zip_code": 85354
    },
    "area_id": 43,
    "name": "StudiTUM Weihenstephan",
    "tumonline_id": 693
  },
  "4114": {
    "address": {
      "place": "Freising",
      "street": "Weihenstephaner Steig 14",
      "zip_code": 85354
    },
    "area_id": 43,
    "name": "ehm. Bauhof",
    "tumonline_id": 694
  },
  "4115": {
    "address": {
      "place": "Freising",
      "street": "Weihenstephaner Steig 19",
      "zip_code": 85350
    },
    "area_id": 43,
    "name": "Familienservice",
    "tumonline_id": 653
  },
  "4116": {
    "address": {
      "place": "Freising",
      "street": "Weihenstephaner Steig 17",
      "zip_code": 85354
    },
    "area_id": 43,
    "name": "Kindervilla (Dr. Gudula Wernekke-Rastett",
    "tumonline_id": 695
  },
  "4117": {
    "address": {
      "place": "Freising",
      "street": "Weihenstephaner Steig 17",
      "zip_code": 85354
    },
    "area_id": 43,
    "name": "Kindervilla II",
    "tumonline_id": 1325
  },
  "4119": {
    "address": {
      "place": "Freising",
      "street": "Hohenbachernstr. 17",
      "zip_code": 85354
    },
    "area_id": 42,
    "name": "Hohenbachernstra\u00dfe 17",
    "tumonline_id": 727
  },
  "4120": {
    "address": {
      "place": "Freising",
      "street": "Hohenbachernstr. 15",
      "zip_code": 85354
    },
    "area_id": 42,
    "name": "Hohenbachernstra\u00dfe 15",
    "tumonline_id": 701
  },
  "4124": {
    "address": {
      "place": "Freising",
      "street": "Weihenstephaner Berg 3",
      "zip_code": 85354
    },
    "area_id": 43,
    "name": "Molekulare Biowissenschaften (ZIEL II)",
    "tumonline_id": 696
  },
  "4126": {
    "address": {
      "place": "Freising",
      "street": "Weihenstephaner Berg 1",
      "zip_code": 85354
    },
    "area_id": 43,
    "name": "ZIEL I - Zentralinstitut f\u00fcr Ern\u00e4hrung-",
    "tumonline_id": 697
  },
  "4128": {
    "address": {
      "place": "Freising",
      "street": "Am Hofgarten",
      "zip_code": 85354
    },
    "area_id": 43,
    "name": "Trafostation I, Am L\u00f6wentor",
    "tumonline_id": 699
  },
  "4129": {
    "address": {
      "place": "Freising",
      "street": "M\u00fchlenweg 22",
      "zip_code": 85354
    },
    "area_id": 138,
    "name": "Aquatische Systembiologie",
    "tumonline_id": 1465
  },
  "4130": {
    "address": {
      "place": "Freising",
      "street": "Weihenstephaner Berg 13",
      "zip_code": 85354
    },
    "area_id": 43,
    "name": "Trafostation IV (Sprachlabor)",
    "tumonline_id": 1225
  },
  "4131": {
    "address": {
      "place": "Freising",
      "street": "M\u00fchlenweg 22",
      "zip_code": 85354
    },
    "area_id": 138,
    "name": "Aquatische Systembiologie \"M\u00fchle\"",
    "tumonline_id": 1466
  },
  "4132": {
    "address": {
      "place": "Freising",
      "street": "M\u00fchlenweg 18",
      "zip_code": 85354
    },
    "area_id": 138,
    "name": "Aquatische Systembiologie \"Wagnerhaus\"",
    "tumonline_id": 1669
  },
  "4153": {
    "address": {
      "place": "Freising",
      "street": "Weihenstephaner Berg 13",
      "zip_code": 85354
    },
    "area_id": 43,
    "name": "Hochschulsport / Sprachenzentrum",
    "tumonline_id": 700
  },
  "4155": {
    "address": {
      "place": "Freising",
      "street": "Weihenstephaner Berg",
      "zip_code": 85354
    },
    "area_id": 43,
    "name": "Kustermannhalle",
    "tumonline_id": 2170
  },
  "4156": {
    "address": {
      "place": "Freising",
      "street": "Weihenstephaner Berg 21",
      "zip_code": 85354
    },
    "area_id": 43,
    "name": "Flaschenkeller Staatsbrauerei",
    "tumonline_id": 2151
  },
  "4180": {
    "address": {
      "place": "Freising",
      "street": "Staatsgut Veitshof",
      "zip_code": 85354
    },
    "area_id": 44,
    "name": "Veitshof Verwaltungsgeb\u00e4ude",
    "tumonline_id": 660
  },
  "4181": {
    "address": {
      "place": "Freising",
      "street": "Staatsgut Veitshof",
      "zip_code": 85354
    },
    "area_id": 44,
    "name": "Veitshof Maschinenhalle",
    "tumonline_id": 661
  },
  "4182": {
    "address": {
      "place": "Freising",
      "street": "Staatsgut Veitshof",
      "zip_code": 85354
    },
    "area_id": 44,
    "name": "Veitshof Bullenstall",
    "tumonline_id": 662
  },
  "4183": {
    "address": {
      "place": "Freising",
      "street": "Staatsgut Veitshof",
      "zip_code": 85354
    },
    "area_id": 44,
    "name": "Veitshof Wohnung/Garage",
    "tumonline_id": 663
  },
  "4184": {
    "address": {
      "place": "Freising",
      "street": "Staatsgut Veitshof",
      "zip_code": 85354
    },
    "area_id": 44,
    "name": "Veitshof Mehrzweckstall",
    "tumonline_id": 664
  },
  "4185": {
    "address": {
      "place": "Freising",
      "street": "Staatsgut Veitshof",
      "zip_code": 85354
    },
    "area_id": 44,
    "name": "Veitshof Offenstall",
    "tumonline_id": 665
  },
  "4186": {
    "address": {
      "place": "Freising",
      "street": "Staatsgut Veitshof",
      "zip_code": 85354
    },
    "area_id": 44,
    "name": "Veitshof G\u00e4rfuttersilo",
    "tumonline_id": 707
  },
  "4187": {
    "address": {
      "place": "Freising",
      "street": "Staatsgut Veitshof",
      "zip_code": 85354
    },
    "area_id": 44,
    "name": "Veitshof Dungsilo",
    "tumonline_id": 708
  },
  "4188": {
    "address": {
      "place": "Freising",
      "street": "Staatsgut Veitshof",
      "zip_code": 85354
    },
    "area_id": 44,
    "name": "Veitshof Fahrsilo",
    "tumonline_id": 709
  },
  "4189": {
    "address": {
      "place": "Freising",
      "street": "Staatsgut Veitshof",
      "zip_code": 85354
    },
    "area_id": 44,
    "name": "Veitshof Strohlagerhalle",
    "tumonline_id": 710
  },
  "4190": {
    "address": {
      "place": "Freising",
      "street": "Staatsgut Veitshof",
      "zip_code": 85354
    },
    "area_id": 44,
    "name": "Veitshof Jungviehstall",
    "tumonline_id": 711
  },
  "4191": {
    "address": {
      "place": "Freising",
      "street": "Staatsgut Veitshof",
      "zip_code": 85354
    },
    "area_id": 44,
    "name": "Veitshof Fahrsilo",
    "tumonline_id": 712
  },
  "4192": {
    "address": {
      "place": "Freising",
      "street": "Staatsgut Veitshof",
      "zip_code": 85354
    },
    "area_id": 44,
    "name": "Veitshof ehem. Wasserwerk",
    "tumonline_id": 1789
  },
  "4202": {
    "address": {
      "place": "Freising",
      "street": "Liesel-Beckmann-Str.",
      "zip_code": 85354
    },
    "area_id": 42,
    "name": "Trafostation V",
    "tumonline_id": 2149
  },
  "4205": {
    "address": {
      "place": "Freising",
      "street": "Gregor-Mendel-Stra\u00dfe 1",
      "zip_code": 85354
    },
    "area_id": 42,
    "name": "Servicegeb\u00e4ude II",
    "tumonline_id": 691
  },
  "4210": {
    "address": {
      "place": "Freising",
      "street": "Am Staudengarten 2",
      "zip_code": 85354
    },
    "area_id": 42,
    "name": "Agrarsystemtechnik",
    "tumonline_id": 726
  },
  "4211": {
    "address": {
      "place": "Freising",
      "street": "V\u00f6ttinger Str. 36",
      "zip_code": 85354
    },
    "area_id": 42,
    "name": "LfL B\u00fcrogeb\u00e4ude 14",
    "tumonline_id": 1140
  },
  "4212": {
    "address": {
      "place": "Freising",
      "street": "Emil-Erlenmeyer-Forum 5",
      "zip_code": 85354
    },
    "area_id": 42,
    "name": "Chemie Bioanalytik Peptidbiochemie",
    "tumonline_id": 679
  },
  "4213": {
    "address": {
      "place": "Freising",
      "street": "Maximus-von-Imhof-Forum 2",
      "zip_code": 85354
    },
    "area_id": 42,
    "name": "Lebensmitteltechnikum",
    "tumonline_id": 680
  },
  "4214": {
    "address": {
      "place": "Freising",
      "street": "Maximus-von-Imhof-Forum 6",
      "zip_code": 85354
    },
    "area_id": 42,
    "name": "Zentrales H\u00f6rsaalgeb\u00e4ude",
    "tumonline_id": 681
  },
  "4215": {
    "address": {
      "place": "Freising",
      "street": "Maximus-von-Imhof-Forum 4",
      "zip_code": 85354
    },
    "area_id": 42,
    "name": "Zentrales Praktikageb\u00e4ude",
    "tumonline_id": 682
  },
  "4216": {
    "address": {
      "place": "Freising",
      "street": "Maximus-von-Imhof-Forum 5",
      "zip_code": 85354
    },
    "area_id": 42,
    "name": "Mensa Weihenstephan",
    "tumonline_id": 683
  },
  "4217": {
    "address": {
      "place": "Freising",
      "street": "Emil-Ramann-Str. 2",
      "zip_code": 85354
    },
    "area_id": 42,
    "name": "Pflanzenproduktion 1",
    "tumonline_id": 684
  },
  "4218": {
    "address": {
      "place": "Freising",
      "street": "Emil-Ramann-Str. 4",
      "zip_code": 85354
    },
    "area_id": 42,
    "name": "Biologikum Weihenstephan",
    "tumonline_id": 685
  },
  "4219": {
    "address": {
      "place": "Freising",
      "street": "Emil-Ramann-Str. 6",
      "zip_code": 85354
    },
    "area_id": 42,
    "name": "Landschaft",
    "tumonline_id": 686
  },
  "4220": {
    "address": {
      "place": "Freising",
      "street": "Maximus-von-Imhof-Forum 1+3",
      "zip_code": 85354
    },
    "area_id": 42,
    "name": "Bibliothek Pressestelle Datenverarbeitun",
    "tumonline_id": 687
  },
  "4221": {
    "address": {
      "place": "Freising",
      "street": "Emil-Erlenmeyer-Forum 7",
      "zip_code": 85354
    },
    "area_id": 42,
    "name": "Fernmeldezentrale",
    "tumonline_id": 688
  },
  "4222": {
    "address": {
      "place": "Freising",
      "street": "V\u00f6ttinger Str. 40",
      "zip_code": 85354
    },
    "area_id": 42,
    "name": "Servicegeb\u00e4ude I",
    "tumonline_id": 2929
  },
  "4223": {
    "address": {
      "place": "Freising",
      "street": "Emil-Ramann-Str. 8",
      "zip_code": 85354
    },
    "area_id": 42,
    "name": "Genetik",
    "tumonline_id": 689
  },
  "4224": {
    "address": {
      "place": "Freising",
      "street": "Gregor-Mendel-Str. 2",
      "zip_code": 85354
    },
    "area_id": 42,
    "name": "ZIEL IV - Biowissenschaften",
    "tumonline_id": 690
  },
  "4225": {
    "address": {
      "place": "Freising",
      "street": "Lise-Meitner-Str. 34",
      "zip_code": 85354
    },
    "area_id": 138,
    "name": "Lebensmittelchemie u.Molekulare Sensorik",
    "tumonline_id": 1467
  },
  "4226": {
    "address": {
      "place": "Freising",
      "street": "Gregor-Mendel-Str. 4",
      "zip_code": 85354
    },
    "area_id": 42,
    "name": "iGZW intern.Getr\u00e4nkewissenschaftliches Z",
    "tumonline_id": 1160
  },
  "4230": {
    "address": {
      "place": "Freising",
      "street": "D\u00fcrnast 11",
      "zip_code": 85354
    },
    "area_id": 39,
    "name": "D\u00fcrnast Versuchsstation Tierst.",
    "tumonline_id": 903
  },
  "4231": {
    "address": {
      "place": "Freising",
      "street": "D\u00fcrnast 7",
      "zip_code": 85354
    },
    "area_id": 39,
    "name": "D\u00fcrnast I",
    "tumonline_id": 904
  },
  "4232": {
    "address": {
      "place": "Freising",
      "street": "D\u00fcrnast 8",
      "zip_code": 85354
    },
    "area_id": 39,
    "name": "D\u00fcrnast II",
    "tumonline_id": 905
  },
  "4234": {
    "address": {
      "place": "Freising",
      "street": "D\u00fcrnast 9",
      "zip_code": 85354
    },
    "area_id": 39,
    "name": "D\u00fcrnast III",
    "tumonline_id": 907
  },
  "4235": {
    "address": {
      "place": "Freising",
      "street": "D\u00fcrnast 10",
      "zip_code": 85354
    },
    "area_id": 39,
    "name": "D\u00fcrnast IV",
    "tumonline_id": 908
  },
  "4236": {
    "address": {
      "place": "Freising",
      "street": "D\u00fcrnast 6",
      "zip_code": 85354
    },
    "area_id": 39,
    "name": "D\u00fcrnast Wohnhaus",
    "tumonline_id": 902
  },
  "4237": {
    "address": {
      "place": "Freising",
      "street": "D\u00fcrnast 3",
      "zip_code": 85354
    },
    "area_id": 39,
    "name": "D\u00fcrnast Werkdienstwohnung",
    "tumonline_id": 887
  },
  "4238": {
    "address": {
      "place": "Freising",
      "street": "Emil-Erlenmeyer-Forum 2",
      "zip_code": 85354
    },
    "area_id": 42,
    "name": "Werkfeuerwehr Weihenstephan",
    "tumonline_id": 714
  },
  "4239": {
    "address": {
      "place": "Freising",
      "street": "Emil-Erlenmeyer-Forum 4",
      "zip_code": 85354
    },
    "area_id": 42,
    "name": "Kindergarten \"Krabbelstube Weihenstephan",
    "tumonline_id": 667
  },
  "4254": {
    "address": {
      "place": "Freising",
      "street": "Emil-Erlenmeyer-Forum 6",
      "zip_code": 85354
    },
    "area_id": 42,
    "name": "Dienstleister / Eltern-Kind",
    "tumonline_id": 971
  },
  "4259": {
    "address": {
      "place": "Freising",
      "street": "Emil-Erlenmeyer-Forum 8",
      "zip_code": 85354
    },
    "area_id": 42,
    "name": "Salzlager",
    "tumonline_id": 2109
  },
  "4264": {
    "address": {
      "place": "Freising",
      "street": "Emil-Erlenmeyer-Forum 8",
      "zip_code": 85354
    },
    "area_id": 42,
    "name": "Fachschaftenhaus",
    "tumonline_id": 993
  },
  "4267": {
    "address": {
      "place": "Freising",
      "street": "Emil-Erlenmeyer-Forum 6",
      "zip_code": 85354
    },
    "area_id": 42,
    "name": "Feuerwache II",
    "tumonline_id": 2089
  },
  "4275": {
    "address": {
      "place": "Freising",
      "street": "An der M\u00fchle 20",
      "zip_code": 85354
    },
    "area_id": 138,
    "name": "TUMmesa",
    "tumonline_id": 1909
  },
  "4277": {
    "address": {
      "place": "Freising",
      "street": "Hans-Carl-von-Carlowitz-Platz 2",
      "zip_code": 85354
    },
    "area_id": 42,
    "name": "Forstwissenschaften",
    "tumonline_id": 668
  },
  "4278": {
    "address": {
      "place": "Freising",
      "street": "Hans-Carl-von-Carlowitz-Platz 1",
      "zip_code": 85354
    },
    "area_id": 42,
    "name": "LWF Bay. Landesanstalt f\u00fcr Wald und Fors",
    "tumonline_id": 728
  },
  "4279": {
    "address": {
      "place": "Freising",
      "street": "Hans-Carl-von-Carlowitz Platz 4",
      "zip_code": 85354
    },
    "area_id": 282,
    "name": "LWF Erweiterungsbau",
    "tumonline_id": 2549
  },
  "4281": {
    "address": {
      "place": "Freising",
      "street": "Am Staudengarten 1",
      "zip_code": 85354
    },
    "area_id": 42,
    "name": "HSWT",
    "tumonline_id": 2152
  },
  "4299": {
    "address": {
      "place": "Freising",
      "street": "Hohenbachernstra\u00dfe 9",
      "zip_code": 85354
    },
    "area_id": 42,
    "name": "Hochschulgemeinde Freising",
    "tumonline_id": 1809
  },
  "4304": {
    "address": {
      "place": "Freising",
      "street": "Lange Point 51",
      "zip_code": 85354
    },
    "area_id": 41,
    "name": "Verwaltung der TUM - Immobilien",
    "tumonline_id": 670
  },
  "4307": {
    "address": {
      "place": "Freising",
      "street": "Liesel-Beckmann-Str. 6",
      "zip_code": 85354
    },
    "area_id": 41,
    "name": "Dienstleistergeb\u00e4ude",
    "tumonline_id": 673
  },
  "4308": {
    "address": {
      "place": "Freising",
      "street": "Liesel-Beckmann-Str. 4",
      "zip_code": 85354
    },
    "area_id": 41,
    "name": "Humanbiologie Zoologie",
    "tumonline_id": 674
  },
  "4309": {
    "address": {
      "place": "Freising",
      "street": "Blumenstr. 16",
      "zip_code": 85354
    },
    "area_id": 41,
    "name": "Inst. Geb. Wirschaftslehre d. Gartenbaus",
    "tumonline_id": 675
  },
  "4310": {
    "address": {
      "place": "Freising",
      "street": "Blumenstr. 16",
      "zip_code": 85354
    },
    "area_id": 41,
    "name": "Werkst. u. Garagen Zierpflanzenbau",
    "tumonline_id": 676
  },
  "4311": {
    "address": {
      "place": "Freising",
      "street": "Blumenstr. 16",
      "zip_code": 85354
    },
    "area_id": 41,
    "name": "Inst. Zierplanzenbau",
    "tumonline_id": 677
  },
  "4314": {
    "address": {
      "place": "Freising",
      "street": "Am Staudengarten",
      "zip_code": 85354
    },
    "area_id": 41,
    "name": "Trafostation  VII",
    "tumonline_id": 886
  },
  "4315": {
    "address": {
      "place": "Freising",
      "street": "Lange Point 51",
      "zip_code": 85354
    },
    "area_id": 41,
    "name": "Lagerhalle (Stra\u00dfenseite)",
    "tumonline_id": 658
  },
  "4316": {
    "address": {
      "place": "Freising",
      "street": "Lange Point 51",
      "zip_code": 85354
    },
    "area_id": 41,
    "name": "Lagerhalle (Feldseite)",
    "tumonline_id": 2512
  },
  "4317": {
    "address": {
      "place": "Freising",
      "street": "Liesel-Beckmann-Str. 1",
      "zip_code": 85354
    },
    "area_id": 41,
    "name": "Tierwissenschaften",
    "tumonline_id": 657
  },
  "4318": {
    "address": {
      "place": "Freising",
      "street": "Liesel-Beckmann-Str. 2",
      "zip_code": 85354
    },
    "area_id": 41,
    "name": "HEZ Hans-Eisenmann-Zentrum f\u00fcr Agrarwiss",
    "tumonline_id": 1161
  },
  "4319": {
    "address": {
      "place": "Freising",
      "street": "Liesel-Beckmann-Str.",
      "zip_code": 85354
    },
    "area_id": 41,
    "name": "Trafostation VI",
    "tumonline_id": 1505
  },
  "4320": {
    "address": {
      "place": "Freising",
      "street": "Lange Point 20+22",
      "zip_code": 85354
    },
    "area_id": 41,
    "name": "Energiezentrale Heizhaus",
    "tumonline_id": 2329
  },
  "4321": {
    "address": {
      "place": "Freising",
      "street": "Lange Point 24",
      "zip_code": 85354
    },
    "area_id": 41,
    "name": "GM Verwaltung",
    "tumonline_id": 654
  },
  "4322": {
    "address": {
      "place": "Freising",
      "street": "Lange Point 24",
      "zip_code": 85354
    },
    "area_id": 41,
    "name": "GMTrafostation XV / Carport",
    "tumonline_id": 655
  },
  "4323": {
    "address": {
      "place": "Freising",
      "street": "Lange Point 24",
      "zip_code": 85354
    },
    "area_id": 41,
    "name": "GM KFZ Werkstatt",
    "tumonline_id": 656
  },
  "4324": {
    "address": {
      "place": "Freising",
      "street": "Lange Point 20+22",
      "zip_code": 85354
    },
    "area_id": 41,
    "name": "GM Garage / Werkdienstwohnungen",
    "tumonline_id": 659
  },
  "4325": {
    "address": {
      "place": "Freising",
      "street": "Lange Point 24",
      "zip_code": 85354
    },
    "area_id": 41,
    "name": "GM Wertstoffhof",
    "tumonline_id": 2349
  },
  "4353": {
    "address": {
      "place": "Freising",
      "street": "Lange Point 4",
      "zip_code": 85354
    },
    "area_id": 41,
    "name": "LfL Laborgeb\u00e4ude 1",
    "tumonline_id": 2173
  },
  "4355": {
    "address": {
      "place": "Freising",
      "street": "Zur Kreutzbreite 4",
      "zip_code": 85354
    },
    "area_id": 41,
    "name": "LfL Technologie VI",
    "tumonline_id": 2169
  },
  "4361": {
    "address": {
      "place": "Freising",
      "street": "Am Gereuth 5",
      "zip_code": 85354
    },
    "area_id": 41,
    "name": "LfL Technologie V",
    "tumonline_id": 2174
  },
  "4362": {
    "address": {
      "place": "Freising",
      "street": "Lange Point 10",
      "zip_code": 85354
    },
    "area_id": 41,
    "name": "LfL Mehrzweckgeb\u00e4ude 1",
    "tumonline_id": 2172
  },
  "4368": {
    "address": {
      "place": "Freising",
      "street": "Am Gereuth 6",
      "zip_code": 85354
    },
    "area_id": 41,
    "name": "LfL Technologie III",
    "tumonline_id": 2171
  },
  "4387": {
    "address": {
      "place": "Freising",
      "street": "Wippenhauserstr. 51",
      "zip_code": 85354
    },
    "area_id": 41,
    "name": "Camerloher Gymnasium",
    "tumonline_id": 2150
  },
  "4401": {
    "address": {
      "place": "Iffeldorf",
      "street": "Hofmark 3",
      "zip_code": 82393
    },
    "area_id": 51,
    "name": "Limnologische Station",
    "tumonline_id": 650
  },
  "4402": {
    "address": {
      "place": "Iffeldorf",
      "street": "Hofmark 3",
      "zip_code": 82393
    },
    "area_id": 51,
    "name": "Bootshaus",
    "tumonline_id": 651
  },
  "4403": {
    "address": {
      "place": "Iffeldorf",
      "street": "Hofmark 3",
      "zip_code": 82393
    },
    "area_id": 51,
    "name": "Limnologische Station Geb\u00e4ude 2",
    "tumonline_id": 649
  },
  "4404": {
    "address": {
      "place": "Iffeldorf",
      "street": "Hofmark 3",
      "zip_code": 82393
    },
    "area_id": 51,
    "name": "Limnologische Station Seminargeb\u00e4ude",
    "tumonline_id": 647
  },
  "4405": {
    "address": {
      "place": "Iffeldorf",
      "street": "Hofmark 3",
      "zip_code": 82393
    },
    "area_id": 51,
    "name": "Limnologische Station Remise",
    "tumonline_id": 648
  },
  "4501": {
    "address": {
      "place": "Freising",
      "street": "D\u00fcrnast 1-2",
      "zip_code": 85354
    },
    "area_id": 39,
    "name": "D\u00fcrnast Arbeiterwohngeb\u00e4ude STG.WST.",
    "tumonline_id": 888
  },
  "4502": {
    "address": {
      "place": "Freising",
      "street": "D\u00fcrnast 1",
      "zip_code": 85354
    },
    "area_id": 39,
    "name": "D\u00fcrnast Werkstattgeb\u00e4ude-Wirt. Geb. STG.",
    "tumonline_id": 889
  },
  "4503": {
    "address": {
      "place": "Freising",
      "street": "D\u00fcrnast 4-5",
      "zip_code": 85354
    },
    "area_id": 39,
    "name": "D\u00fcrnast -Verw.-, WGB., RS., S.-STG.WST.",
    "tumonline_id": 890
  },
  "4505": {
    "address": {
      "place": "Freising",
      "street": "D\u00fcrnast 5",
      "zip_code": 85354
    },
    "area_id": 39,
    "name": "D\u00fcrnast Maschinenhalle STG.WST.-Kart, La",
    "tumonline_id": 892
  },
  "4506": {
    "address": {
      "place": "Freising",
      "street": "D\u00fcrnast 5",
      "zip_code": 85354
    },
    "area_id": 39,
    "name": "D\u00fcrnast Schuppen STG.WST.",
    "tumonline_id": 893
  },
  "4508": {
    "address": {
      "place": "Freising",
      "street": "D\u00fcrnast 1",
      "zip_code": 85354
    },
    "area_id": 39,
    "name": "D\u00fcrnast Wagenh. m. Fuhrw. W. STG.WST.",
    "tumonline_id": 897
  },
  "4509": {
    "address": {
      "place": "Freising",
      "street": "Staatsgut Weihenstephan",
      "zip_code": 85354
    },
    "area_id": 39,
    "name": "D\u00fcrnast Fahrsilo-G\u00fcllebeh\u00e4lter STG.WST.",
    "tumonline_id": 898
  },
  "4510": {
    "address": {
      "place": "Freising",
      "street": "D\u00fcrnast 1",
      "zip_code": 85354
    },
    "area_id": 39,
    "name": "D\u00fcrnast Getreidekasten STG.WST.",
    "tumonline_id": 899
  },
  "4512": {
    "address": {
      "place": "Freising",
      "street": "D\u00fcrnast 5",
      "zip_code": 85354
    },
    "area_id": 39,
    "name": "D\u00fcrnast Ger\u00e4tehalle West",
    "tumonline_id": 2029
  },
  "4513": {
    "address": {
      "place": "Freising",
      "street": "D\u00fcrnast 5",
      "zip_code": 85354
    },
    "area_id": 39,
    "name": "D\u00fcrnast Ger\u00e4tehalle Ost",
    "tumonline_id": 2030
  },
  "4521": {
    "address": {
      "place": "Kranzberg",
      "street": "Viehhausen 4",
      "zip_code": 85402
    },
    "area_id": 39,
    "name": "Viehhausen Mehrzweckhalle STG.WST.",
    "tumonline_id": 900
  },
  "4522": {
    "address": {
      "place": "Kranzberg",
      "street": "Viehhausen 4",
      "zip_code": 85402
    },
    "area_id": 39,
    "name": "Viehhausen Landwirtschafliche Freifl\u00e4che",
    "tumonline_id": 901
  },
  "4523": {
    "address": {
      "place": "Kranzberg",
      "street": "Viehhausen 4",
      "zip_code": 85402
    },
    "area_id": 39,
    "name": "Viehhausen H\u00fchnerstall STG.WST.",
    "tumonline_id": 894
  },
  "4524": {
    "address": {
      "place": "Kranzberg",
      "street": "Viehhausen 4",
      "zip_code": 85402
    },
    "area_id": 39,
    "name": "Viehhausen Tankstelle Viehhof STG.WST.",
    "tumonline_id": 895
  },
  "4601": {
    "address": {
      "place": "Kranzberg",
      "street": "Staatsgut Thalhausen",
      "zip_code": 85402
    },
    "area_id": 54,
    "name": "VST.Thalh.-Wohngeb\u00e4ude (Wohnhaus 1-3)",
    "tumonline_id": 737
  },
  "4602": {
    "address": {
      "place": "Kranzberg",
      "street": "Staatsgut Thalhausen",
      "zip_code": 85402
    },
    "area_id": 54,
    "name": "VST.Thalh.-Zentralgeb\u00e4ude (Verwaltung)",
    "tumonline_id": 738
  },
  "4603": {
    "address": {
      "place": "Kranzberg",
      "street": "Staatsgut Thalhausen",
      "zip_code": 85402
    },
    "area_id": 54,
    "name": "VST.Thalh.-Betriebsgeb\u00e4ude (Werkstattgeb",
    "tumonline_id": 739
  },
  "4604": {
    "address": {
      "place": "Kranzberg",
      "street": "Staatsgut Thalhausen",
      "zip_code": 85402
    },
    "area_id": 54,
    "name": "VST.Thalh.-Maschinenhalle",
    "tumonline_id": 740
  },
  "4605": {
    "address": {
      "place": "Kranzberg",
      "street": "Staatsgut Thalhausen",
      "zip_code": 85402
    },
    "area_id": 54,
    "name": "VST.Thalh.-Rinder/K\u00e4lber (L\u00f6bnitz)",
    "tumonline_id": 741
  },
  "4606": {
    "address": {
      "place": "Kranzberg",
      "street": "Staatsgut Thalhausen",
      "zip_code": 85402
    },
    "area_id": 54,
    "name": "VST.Thalh.-Futterzentrale",
    "tumonline_id": 742
  },
  "4607": {
    "address": {
      "place": "Kranzberg",
      "street": "Staatsgut Thalhausen",
      "zip_code": 85402
    },
    "area_id": 54,
    "name": "VST.Thalh.-Tr. Sauen/Eber (Besamungsst./",
    "tumonline_id": 743
  },
  "4608": {
    "address": {
      "place": "Kranzberg",
      "street": "Staatsgut Thalhausen",
      "zip_code": 85402
    },
    "area_id": 54,
    "name": "VST.Thalh.-Mastschweine 1 (Maststall)",
    "tumonline_id": 744
  },
  "4609": {
    "address": {
      "place": "Kranzberg",
      "street": "Staatsgut Thalhausen",
      "zip_code": 85402
    },
    "area_id": 54,
    "name": "VST.Thalh.-Ferkel/Sauen",
    "tumonline_id": 745
  },
  "4610": {
    "address": {
      "place": "Kranzberg",
      "street": "Staatsgut Thalhausen",
      "zip_code": 85402
    },
    "area_id": 54,
    "name": "VST.Thalh.-Mastschweine 2",
    "tumonline_id": 746
  },
  "4611": {
    "address": {
      "place": "Kranzberg",
      "street": "Staatsgut Thalhausen",
      "zip_code": 85402
    },
    "area_id": 54,
    "name": "VST.Thalh.-Legehennen/Broiler",
    "tumonline_id": 736
  },
  "4612": {
    "address": {
      "place": "Kranzberg",
      "street": "Staatsgut Thalhausen",
      "zip_code": 85402
    },
    "area_id": 54,
    "name": "VST.Thalh.-Probemaststall",
    "tumonline_id": 730
  },
  "4613": {
    "address": {
      "place": "Kranzberg",
      "street": "Staatsgut Thalhausen",
      "zip_code": 85402
    },
    "area_id": 54,
    "name": "VST.Thalh.-Elterntierstall",
    "tumonline_id": 731
  },
  "4614": {
    "address": {
      "place": "Kranzberg",
      "street": "Staatsgut Thalhausen",
      "zip_code": 85402
    },
    "area_id": 54,
    "name": "VST.Thalh.-Futtergang",
    "tumonline_id": 732
  },
  "4615": {
    "address": {
      "place": "Kranzberg",
      "street": "Staatsgut Thalhausen",
      "zip_code": 85402
    },
    "area_id": 54,
    "name": "VST.Thalh.-Strohlager",
    "tumonline_id": 733
  },
  "4616": {
    "address": {
      "place": "Kranzberg",
      "street": "Staatsgut Thalhausen",
      "zip_code": 85402
    },
    "area_id": 54,
    "name": "VST.Thalh.-G\u00fcllebeh\u00e4lter",
    "tumonline_id": 734
  },
  "4620": {
    "address": {
      "place": "Kranzberg",
      "street": "Staatsgut Thalhausen",
      "zip_code": 85402
    },
    "area_id": 54,
    "name": "VST.Thalh.-Versuchsfelder",
    "tumonline_id": 735
  },
  "4800": {
    "address": {
      "place": "Freising",
      "street": "Acheringer Hauptstr. 32a",
      "zip_code": 85354
    },
    "area_id": 138,
    "name": "Halle Achering (M\u00fchlich)",
    "tumonline_id": 2589
  },
  "4801": {
    "address": {
      "place": "Eitting",
      "street": "Staatsgut Gr\u00fcnschwaige",
      "zip_code": 85462
    },
    "area_id": 56,
    "name": "VSG.Gr\u00fcnschw.-Verwaltungsgeb\u00e4ude",
    "tumonline_id": 780
  },
  "4802": {
    "address": {
      "place": "Eitting",
      "street": "Staatsgut Gr\u00fcnschwaige",
      "zip_code": 85462
    },
    "area_id": 56,
    "name": "VSG.Gr\u00fcnschw.-Mehrzweckhalle",
    "tumonline_id": 779
  },
  "4803": {
    "address": {
      "place": "Eitting",
      "street": "Staatsgut Gr\u00fcnschwaige",
      "zip_code": 85462
    },
    "area_id": 56,
    "name": "VSG.Gr\u00fcnschw.-Schweinestall",
    "tumonline_id": 766
  },
  "4804": {
    "address": {
      "place": "Eitting",
      "street": "Staatsgut Gr\u00fcnschwaige",
      "zip_code": 85462
    },
    "area_id": 56,
    "name": "VSG.Gr\u00fcnschw.-Getreidelager",
    "tumonline_id": 767
  },
  "4805": {
    "address": {
      "place": "Eitting",
      "street": "Staatsgut Gr\u00fcnschwaige",
      "zip_code": 85462
    },
    "area_id": 56,
    "name": "VSG.Gr\u00fcnschw.-Futtersilo",
    "tumonline_id": 768
  },
  "4806": {
    "address": {
      "place": "Eitting",
      "street": "Staatsgut Gr\u00fcnschwaige",
      "zip_code": 85462
    },
    "area_id": 56,
    "name": "VSG.Gr\u00fcnschw.-Schafstall",
    "tumonline_id": 769
  },
  "4807": {
    "address": {
      "place": "Eitting",
      "street": "Staatsgut Gr\u00fcnschwaige",
      "zip_code": 85462
    },
    "area_id": 56,
    "name": "VSG.Gr\u00fcnschw.-Lagerscheune",
    "tumonline_id": 770
  },
  "4808": {
    "address": {
      "place": "Eitting",
      "street": "Staatsgut Gr\u00fcnschwaige",
      "zip_code": 85462
    },
    "area_id": 56,
    "name": "VSG.Gr\u00fcnschw.-Stallgeb\u00e4ude",
    "tumonline_id": 771
  },
  "4809": {
    "address": {
      "place": "Eitting",
      "street": "Staatsgut Gr\u00fcnschwaige",
      "zip_code": 85462
    },
    "area_id": 56,
    "name": "VSG.Gr\u00fcnschw.-Ger\u00e4tescheune",
    "tumonline_id": 772
  },
  "4810": {
    "address": {
      "place": "Eitting",
      "street": "Staatsgut Gr\u00fcnschwaige",
      "zip_code": 85462
    },
    "area_id": 56,
    "name": "VSG.Gr\u00fcnschw.-Strohscheune",
    "tumonline_id": 773
  },
  "4811": {
    "address": {
      "place": "Eitting",
      "street": "Staatsgut Gr\u00fcnschwaige",
      "zip_code": 85462
    },
    "area_id": 56,
    "name": "VSG.Gr\u00fcnschw.-Strohscheune",
    "tumonline_id": 774
  },
  "4812": {
    "address": {
      "place": "Eitting",
      "street": "Staatsgut Gr\u00fcnschwaige",
      "zip_code": 85462
    },
    "area_id": 56,
    "name": "VSG.Gr\u00fcnschw.-Maschinenhalle",
    "tumonline_id": 775
  },
  "4813": {
    "address": {
      "place": "Eitting",
      "street": "Staatsgut Gr\u00fcnschwaige",
      "zip_code": 85462
    },
    "area_id": 56,
    "name": "VSG.Gr\u00fcnschw.-Baur-Haus",
    "tumonline_id": 776
  },
  "4814": {
    "address": {
      "place": "Eitting",
      "street": "Staatsgut Gr\u00fcnschwaige",
      "zip_code": 85462
    },
    "area_id": 56,
    "name": "VSG.Gr\u00fcnschw.-Fahrsilo",
    "tumonline_id": 777
  },
  "4815": {
    "address": {
      "place": "Eitting",
      "street": "Staatsgut Gr\u00fcnschwaige",
      "zip_code": 85462
    },
    "area_id": 56,
    "name": "VSG.Gr\u00fcnschw.-Grastrockner",
    "tumonline_id": 778
  },
  "4901": {
    "address": {
      "place": "Eichenau",
      "street": "Oberroggenstein 1",
      "zip_code": 82223
    },
    "area_id": 52,
    "name": "VSG.Roggst.-2Wgb, Verw., VTS",
    "tumonline_id": 634
  },
  "4902": {
    "address": {
      "place": "Eichenau",
      "street": "Oberroggenstein 1",
      "zip_code": 82223
    },
    "area_id": 52,
    "name": "VSG.Roggst.-Doktor. Haus",
    "tumonline_id": 635
  },
  "4903": {
    "address": {
      "place": "Eichenau",
      "street": "Oberroggenstein 1",
      "zip_code": 82223
    },
    "area_id": 52,
    "name": "VSG.Roggst.-Schw.St., Wirtg.",
    "tumonline_id": 636
  },
  "4907": {
    "address": {
      "place": "Emmering",
      "street": "Unterroggenstein 1-3",
      "zip_code": 82275
    },
    "area_id": 52,
    "name": "VSG.Roggst.-Wirtschaftsgeb\u00e4ude",
    "tumonline_id": 637
  },
  "4908": {
    "address": {
      "place": "Emmering",
      "street": "Unterroggenstein 1-3",
      "zip_code": 82275
    },
    "area_id": 52,
    "name": "VSG.Roggst.-Wagenremise",
    "tumonline_id": 638
  },
  "4909": {
    "address": {
      "place": "Emmering",
      "street": "Unterroggenstein 1-3",
      "zip_code": 82275
    },
    "area_id": 52,
    "name": "VSG.Roggst.-Maschinen, D\u00fcnger",
    "tumonline_id": 639
  },
  "4910": {
    "address": {
      "place": "Emmering",
      "street": "Unterroggenstein 1-3",
      "zip_code": 82275
    },
    "area_id": 52,
    "name": "VSG.Roggenst.-Getreidesilo",
    "tumonline_id": 640
  },
  "4914": {
    "address": {
      "place": "Olching",
      "street": "Roggensteiner Stra\u00dfe 187",
      "zip_code": 82140
    },
    "area_id": 52,
    "name": "VSG.Roggst.-Arb.Gba. 1, SCHP",
    "tumonline_id": 643
  },
  "4915": {
    "address": {
      "place": "Olching",
      "street": "Roggensteiner Stra\u00dfe 189",
      "zip_code": 82140
    },
    "area_id": 52,
    "name": "VSG.Roggst.-Arb.Gba. 2, SCHP",
    "tumonline_id": 632
  },
  "4916": {
    "address": {
      "place": "Olching",
      "street": "Roggensteiner Stra\u00dfe 193",
      "zip_code": 82140
    },
    "area_id": 52,
    "name": "VSG.Roggst.-Arb.Gba. 3, SCHP",
    "tumonline_id": 629
  },
  "4920": {
    "address": {
      "place": "Eichenau",
      "street": "Oberroggenstein 1",
      "zip_code": 82223
    },
    "area_id": 52,
    "name": "Kapelle",
    "tumonline_id": 631
  },
  "5101": {
    "address": {
      "place": "Garching b. M\u00fcnchen",
      "street": "James-Franck-Str. 1",
      "zip_code": 85748
    },
    "area_id": 35,
    "name": "Physik I",
    "tumonline_id": 785
  },
  "5103": {
    "address": {
      "place": "Garching b. M\u00fcnchen",
      "street": "Boltzmannstr. 10",
      "zip_code": 85748
    },
    "area_id": 35,
    "name": "Betriebsgeb\u00e4ude II",
    "tumonline_id": 786
  },
  "5104": {
    "address": {
      "place": "Garching b. M\u00fcnchen",
      "street": "Boltzmannstr. 16",
      "zip_code": 85748
    },
    "area_id": 35,
    "name": "RCM-Technikum",
    "tumonline_id": 787
  },
  "5107": {
    "address": {
      "place": "Garching b. M\u00fcnchen",
      "street": "Am Coulombwall 2",
      "zip_code": 85748
    },
    "area_id": 35,
    "name": "Physik II",
    "tumonline_id": 789
  },
  "5108": {
    "address": {
      "place": "Garching b. M\u00fcnchen",
      "street": "James-Franck-Str. 1",
      "zip_code": 85748
    },
    "area_id": 35,
    "name": "Physik II Messbunker UGL,ISL,TOM",
    "tumonline_id": 781
  },
  "5109": {
    "address": {
      "place": "Garching b. M\u00fcnchen",
      "street": "Am Coulombwall 1",
      "zip_code": 85748
    },
    "area_id": 35,
    "name": "Physik LMU",
    "tumonline_id": 872
  },
  "5111": {
    "address": {
      "place": "Garching b. M\u00fcnchen",
      "street": "Am Coulombwall 3",
      "zip_code": 85748
    },
    "area_id": 35,
    "name": "Siedlungswasserwirtschaft",
    "tumonline_id": 790
  },
  "5112": {
    "address": {
      "place": "Garching b. M\u00fcnchen",
      "street": "Am Coulombwall 4",
      "zip_code": 85748
    },
    "area_id": 35,
    "name": "Walter-Schottky-Institut",
    "tumonline_id": 791
  },
  "5115": {
    "address": {
      "place": "Garching b. M\u00fcnchen",
      "street": "Am Coulombwall 4a",
      "zip_code": 85748
    },
    "area_id": 35,
    "name": "Zentrum f\u00fcr Nanotechnologie & -materiali",
    "tumonline_id": 1080
  },
  "5116": {
    "address": {
      "place": "Garching b. M\u00fcnchen",
      "street": "Am Coulombwall 4a",
      "zip_code": 85748
    },
    "area_id": 35,
    "name": "Trafostation des ZNN",
    "tumonline_id": 1100
  },
  "5120": {
    "address": {
      "place": "Garching b. M\u00fcnchen",
      "street": "Am Coulombwall 6",
      "zip_code": 85748
    },
    "area_id": 35,
    "name": "Physik Beschleuniger LMU",
    "tumonline_id": 873
  },
  "5121": {
    "address": {
      "place": "Garching b. M\u00fcnchen",
      "street": "Am Coulombwall 6",
      "zip_code": 85748
    },
    "area_id": 35,
    "name": "Atlashalle LMU",
    "tumonline_id": 874
  },
  "5123": {
    "address": {
      "place": "Garching b. M\u00fcnchen",
      "street": "Am Coulombwall 1",
      "zip_code": 85748
    },
    "area_id": 35,
    "name": "Physik Werkstattgeb\u00e4ude LMU",
    "tumonline_id": 875
  },
  "5124": {
    "address": {
      "place": "Garching b. M\u00fcnchen",
      "street": "James-Franck-Str. 1",
      "zip_code": 85748
    },
    "area_id": 35,
    "name": "WSI Container",
    "tumonline_id": 792
  },
  "5125": {
    "address": {
      "place": "Garching b. M\u00fcnchen",
      "street": "Am Coloumbwall 1a",
      "zip_code": 85748
    },
    "area_id": 35,
    "name": "LEX  (LMU)",
    "tumonline_id": 1425
  },
  "5126": {
    "address": {
      "place": "Garching b. M\u00fcnchen",
      "street": "Am Coloumbwall 1b",
      "zip_code": 85748
    },
    "area_id": 35,
    "name": "CALA (LMU)",
    "tumonline_id": 2069
  },
  "5130": {
    "address": {
      "place": "Garching b. M\u00fcnchen",
      "street": "Boltzmannstr. 10a",
      "zip_code": 85748
    },
    "area_id": 35,
    "name": "Telefonzentrale",
    "tumonline_id": 783
  },
  "5131": {
    "address": {
      "place": "Garching b. M\u00fcnchen",
      "street": "Boltzmannstr. 10b",
      "zip_code": 85748
    },
    "area_id": 35,
    "name": "FRM-Poststelle (Container)",
    "tumonline_id": 1609
  },
  "5140": {
    "address": {
      "place": "Garching b. M\u00fcnchen",
      "street": "James-Frank-Str. 1",
      "zip_code": 85748
    },
    "area_id": 35,
    "name": "PH I Container",
    "tumonline_id": 1365
  },
  "5142": {
    "address": {
      "place": "Garching b. M\u00fcnchen",
      "street": "Paula-Hahn-Weinheimer-Str. 4",
      "zip_code": 85748
    },
    "area_id": 35,
    "name": "Parkhaus P1",
    "tumonline_id": 2289
  },
  "5143": {
    "address": {
      "place": "Garching b. M\u00fcnchen",
      "street": "Paula-Hahn-Weinheimer-Str. 2",
      "zip_code": 85748
    },
    "area_id": 35,
    "name": "Versorgungsstation PH",
    "tumonline_id": 2429
  },
  "5160": {
    "address": {
      "place": "Garching b. M\u00fcnchen",
      "street": "Am Coulombwall 6",
      "zip_code": 85748
    },
    "area_id": 35,
    "name": "UCN-Testanlage (Container)",
    "tumonline_id": 1870
  },
  "5202": {
    "address": {
      "place": "Garching b. M\u00fcnchen",
      "street": "Lichtenbergstr. 1",
      "zip_code": 85748
    },
    "area_id": 37,
    "name": "Flachbau 2+3 (Zyklotron)",
    "tumonline_id": 784
  },
  "5203": {
    "address": {
      "place": "Garching b. M\u00fcnchen",
      "street": "Walther-Mei\u00dfner-Str. 1",
      "zip_code": 85748
    },
    "area_id": 37,
    "name": "B\u00fcrogeb\u00e4ude",
    "tumonline_id": 794
  },
  "5204": {
    "address": {
      "place": "Garching b. M\u00fcnchen",
      "street": "Walther-Mei\u00dfner-Str. 4",
      "zip_code": 85748
    },
    "area_id": 37,
    "name": "Umformtechnik und Gie\u00dfereiwesen (MW25)",
    "tumonline_id": 795
  },
  "5212": {
    "address": {
      "place": "Garching b. M\u00fcnchen",
      "street": "Walther-Mei\u00dfner-Str. 3",
      "zip_code": 85748
    },
    "area_id": 37,
    "name": "RCM-Hauptbau",
    "tumonline_id": 883
  },
  "5219": {
    "address": {
      "place": "Garching b. M\u00fcnchen",
      "street": "Walther-Mei\u00dfner-Str. 2",
      "zip_code": 85748
    },
    "area_id": 37,
    "name": "Verwaltung der TUM",
    "tumonline_id": 856
  },
  "5251": {
    "address": {
      "place": "Garching b. M\u00fcnchen",
      "street": "Walther-Mei\u00dfner-Str. 3",
      "zip_code": 85748
    },
    "area_id": 37,
    "name": "RCM-Abwassergeb\u00e4ude",
    "tumonline_id": 881
  },
  "5252": {
    "address": {
      "place": "Garching b. M\u00fcnchen",
      "street": "Walther-Mei\u00dfner-Str. 3",
      "zip_code": 85748
    },
    "area_id": 37,
    "name": "RCM-Gasversorgungsstation",
    "tumonline_id": 882
  },
  "5257": {
    "address": {
      "place": "Garching b. M\u00fcnchen",
      "street": "Lichtenbergstr. 1",
      "zip_code": 85748
    },
    "area_id": 37,
    "name": "Werkstatt u. B\u00fcrogeb\u00e4ude FRM II (UYW)",
    "tumonline_id": 2449
  },
  "5268": {
    "address": {
      "place": "Garching b. M\u00fcnchen",
      "street": "Walther-Mei\u00dfner-Str. 3",
      "zip_code": 85748
    },
    "area_id": 37,
    "name": "RCM-BMA/ELA-Container",
    "tumonline_id": 1830
  },
  "5301": {
    "address": {
      "place": "Garching b. M\u00fcnchen",
      "street": "Lichtenbergstr. 2a",
      "zip_code": 85748
    },
    "area_id": 30,
    "name": "IAS, Institut f\u00fcr Advanced Study",
    "tumonline_id": 1120
  },
  "5302": {
    "address": {
      "place": "Garching b. M\u00fcnchen",
      "street": "Lichtenbergstr. 2",
      "zip_code": 85748
    },
    "area_id": 30,
    "name": "Mensa (Altbau)",
    "tumonline_id": 816
  },
  "5304": {
    "address": {
      "place": "Garching b. M\u00fcnchen",
      "street": "Boltzmannstr. 19",
      "zip_code": 85748
    },
    "area_id": 30,
    "name": "Mensa Garching (Neubau)",
    "tumonline_id": 2009
  },
  "5305": {
    "address": {
      "place": "Garching b. M\u00fcnchen",
      "street": "Lichtenbergstr. 2c",
      "zip_code": 85748
    },
    "area_id": 30,
    "name": "Modulbau NDB 2",
    "tumonline_id": 3209
  },
  "5401": {
    "address": {
      "place": "Garching b. M\u00fcnchen",
      "street": "Lichtenbergstr. 4",
      "zip_code": 85748
    },
    "area_id": 36,
    "name": "Bibliothek, H\u00f6rsaal CH 1",
    "tumonline_id": 818
  },
  "5402": {
    "address": {
      "place": "Garching b. M\u00fcnchen",
      "street": "Lichtenbergstr. 4",
      "zip_code": 85748
    },
    "area_id": 36,
    "name": "Laborgeb\u00e4ude CH 2",
    "tumonline_id": 819
  },
  "5403": {
    "address": {
      "place": "Garching b. M\u00fcnchen",
      "street": "Lichtenbergstr. 4",
      "zip_code": 85748
    },
    "area_id": 36,
    "name": "Laborgeb\u00e4ude CH 3",
    "tumonline_id": 821
  },
  "5404": {
    "address": {
      "place": "Garching b. M\u00fcnchen",
      "street": "Lichtenbergstr. 4",
      "zip_code": 85748
    },
    "area_id": 36,
    "name": "Hofgeb\u00e4ude 2",
    "tumonline_id": 815
  },
  "5406": {
    "address": {
      "place": "Garching b. M\u00fcnchen",
      "street": "Lichtenbergstr. 4",
      "zip_code": 85748
    },
    "area_id": 36,
    "name": "Laborgeb\u00e4ude CH 6",
    "tumonline_id": 824
  },
  "5407": {
    "address": {
      "place": "Garching b. M\u00fcnchen",
      "street": "Lichtenbergstr. 4",
      "zip_code": 85748
    },
    "area_id": 36,
    "name": "Laborgeb\u00e4ude CH 7",
    "tumonline_id": 826
  },
  "5408": {
    "address": {
      "place": "Garching b. M\u00fcnchen",
      "street": "Lichtenbergstr. 4",
      "zip_code": 85748
    },
    "area_id": 36,
    "name": "Hofgeb\u00e4ude 1",
    "tumonline_id": 828
  },
  "5409": {
    "address": {
      "place": "Garching b. M\u00fcnchen",
      "street": "Ernst-Otto-Fischer-Str. 4",
      "zip_code": 85748
    },
    "area_id": 36,
    "name": "Entsorgungszentrum",
    "tumonline_id": 830
  },
  "5410": {
    "address": {
      "place": "Garching b. M\u00fcnchen",
      "street": "Ernst-Otto-Fischer-Str. 1",
      "zip_code": 85748
    },
    "area_id": 36,
    "name": "Katalysezentrum",
    "tumonline_id": 1405
  },
  "5413": {
    "address": {
      "place": "Garching b. M\u00fcnchen",
      "street": "Ernst-Otto-Fischer-Str. 2",
      "zip_code": 85748
    },
    "area_id": 36,
    "name": "Bayerisches NMR-Zentrum",
    "tumonline_id": 1989
  },
  "5414": {
    "address": {
      "place": "Garching b. M\u00fcnchen",
      "street": "Lichtenbergstr. 4a",
      "zip_code": 85748
    },
    "area_id": 36,
    "name": "Zentrum f\u00fcr Energie u. Information (ZEI)",
    "tumonline_id": 1670
  },
  "5415": {
    "address": {
      "place": "Garching b. M\u00fcnchen",
      "street": "Ernst-Otto-Fischer-Str. 8",
      "zip_code": 85748
    },
    "area_id": 36,
    "name": "CPA Center for Functional Protein Assemb",
    "tumonline_id": 2729
  },
  "5416": {
    "address": {
      "place": "Garching b. M\u00fcnchen",
      "street": "Lichtenbergstr. 2b",
      "zip_code": 85748
    },
    "area_id": 36,
    "name": "Interims H\u00f6rs\u00e4le II",
    "tumonline_id": 2269
  },
  "5433": {
    "address": {
      "place": "Garching b. M\u00fcnchen",
      "street": "Lichtenbergstr. 6",
      "zip_code": 85748
    },
    "area_id": 36,
    "name": "Entreprenieurship Centrum (ECM)",
    "tumonline_id": 1649
  },
  "5501": {
    "address": {
      "place": "Garching b. M\u00fcnchen",
      "street": "Boltzmannstr. 15",
      "zip_code": 85748
    },
    "area_id": 34,
    "name": "Institut f. Mechatronik",
    "tumonline_id": 833
  },
  "5502": {
    "address": {
      "place": "Garching b. M\u00fcnchen",
      "street": "Boltzmannstr. 15",
      "zip_code": 85748
    },
    "area_id": 34,
    "name": "Institut f. Werkst. u. Verarbeitung",
    "tumonline_id": 836
  },
  "5503": {
    "address": {
      "place": "Garching b. M\u00fcnchen",
      "street": "Boltzmannstr. 15",
      "zip_code": 85748
    },
    "area_id": 34,
    "name": "Institut f. Produktionstechnik",
    "tumonline_id": 838
  },
  "5504": {
    "address": {
      "place": "Garching b. M\u00fcnchen",
      "street": "Boltzmannstr. 15",
      "zip_code": 85748
    },
    "area_id": 34,
    "name": "Institut f. Verfahrenstechnik",
    "tumonline_id": 841
  },
  "5505": {
    "address": {
      "place": "Garching b. M\u00fcnchen",
      "street": "Boltzmannstr. 15",
      "zip_code": 85748
    },
    "area_id": 34,
    "name": "Institut f. Maschinentechnik",
    "tumonline_id": 843
  },
  "5506": {
    "address": {
      "place": "Garching b. M\u00fcnchen",
      "street": "Boltzmannstr. 15",
      "zip_code": 85748
    },
    "area_id": 34,
    "name": "Institut f. Luft-u. Raumfahrt",
    "tumonline_id": 845
  },
  "5507": {
    "address": {
      "place": "Garching b. M\u00fcnchen",
      "street": "Boltzmannstr. 15",
      "zip_code": 85748
    },
    "area_id": 34,
    "name": "Institut f. Energietechnik",
    "tumonline_id": 844
  },
  "5508": {
    "address": {
      "place": "Garching b. M\u00fcnchen",
      "street": "Boltzmannstr. 15",
      "zip_code": 85748
    },
    "area_id": 34,
    "name": "H\u00f6rsaal West",
    "tumonline_id": 846
  },
  "5509": {
    "address": {
      "place": "Garching b. M\u00fcnchen",
      "street": "Boltzmannstr. 15",
      "zip_code": 85748
    },
    "area_id": 34,
    "name": "Magistrale",
    "tumonline_id": 2569
  },
  "5510": {
    "address": {
      "place": "Garching b. M\u00fcnchen",
      "street": "Boltzmannstr. 15",
      "zip_code": 85748
    },
    "area_id": 34,
    "name": "H\u00f6rsaal, Bibliothek u. Verwaltungsgeb\u00e4ud",
    "tumonline_id": 842
  },
  "5513": {
    "address": {
      "place": "Garching b. M\u00fcnchen",
      "street": "Boltzmannstr. 15",
      "zip_code": 85748
    },
    "area_id": 34,
    "name": "Energiezentrale",
    "tumonline_id": 817
  },
  "5514": {
    "address": {
      "place": "Garching b. M\u00fcnchen",
      "street": "Boltzmannstr. 15",
      "zip_code": 85748
    },
    "area_id": 34,
    "name": "Kinderkrippe",
    "tumonline_id": 820
  },
  "5515": {
    "address": {
      "place": "Garching b. M\u00fcnchen",
      "street": "Boltzmannstr. 15",
      "zip_code": 85748
    },
    "area_id": 34,
    "name": "Zentrum f\u00fcr Schl\u00fcsselkompetenzen",
    "tumonline_id": 822
  },
  "5517": {
    "address": {
      "place": "Garching b. M\u00fcnchen",
      "street": "Boltzmannstr. 15",
      "zip_code": 85748
    },
    "area_id": 34,
    "name": "Pr\u00fcfstandgeb\u00e4ude",
    "tumonline_id": 825
  },
  "5518": {
    "address": {
      "place": "Garching b. M\u00fcnchen",
      "street": "Boltzmannstr. 15",
      "zip_code": 85748
    },
    "area_id": 34,
    "name": "Gasflaschenlager",
    "tumonline_id": 827
  },
  "5519": {
    "address": {
      "place": "Garching b. M\u00fcnchen",
      "street": "Boltzmannstr. 15",
      "zip_code": 85748
    },
    "area_id": 34,
    "name": "FTM Fahrzeughalle",
    "tumonline_id": 1949
  },
  "5530": {
    "address": {
      "place": "Garching b. M\u00fcnchen",
      "street": "Boltzmannstr. 17",
      "zip_code": 85748
    },
    "area_id": 34,
    "name": "IGSSE, Exzellenzzentrum Garching",
    "tumonline_id": 992
  },
  "5531": {
    "address": {
      "place": "Garching b. M\u00fcnchen",
      "street": "Lichtenbergstr. 9",
      "zip_code": 85748
    },
    "area_id": 34,
    "name": "Ingeborg Ortner-Kinderhaus",
    "tumonline_id": 1165
  },
  "5532": {
    "address": {
      "place": "Garching b. M\u00fcnchen",
      "street": "Lichtenbergstr. 3",
      "zip_code": 85748
    },
    "area_id": 34,
    "name": "StudiTUM-Garching",
    "tumonline_id": 2229
  },
  "5537": {
    "address": {
      "place": "Garching b. M\u00fcnchen",
      "street": "Boltzmannstr. 15",
      "zip_code": 85748
    },
    "area_id": 34,
    "name": "Interims-Zelt-TUMshop",
    "tumonline_id": 2630
  },
  "5539": {
    "address": {
      "place": "Garching b. M\u00fcnchen",
      "street": "Boltzmannstr. 15",
      "zip_code": 85748
    },
    "area_id": 34,
    "name": "Interims-Tentomax MW",
    "tumonline_id": 3149
  },
  "5601": {
    "address": {
      "place": "Garching b. M\u00fcnchen",
      "street": "Boltzmannstr. 3",
      "zip_code": 85748
    },
    "area_id": 33,
    "name": "FMI/ Magistrale",
    "tumonline_id": 829
  },
  "5602": {
    "address": {
      "place": "Garching b. M\u00fcnchen",
      "street": "Boltzmannstr. 3",
      "zip_code": 85748
    },
    "area_id": 33,
    "name": "FMI/ H\u00f6rsaal 1",
    "tumonline_id": 831
  },
  "5603": {
    "address": {
      "place": "Garching b. M\u00fcnchen",
      "street": "Boltzmannstr. 3",
      "zip_code": 85748
    },
    "area_id": 33,
    "name": "FMI/ Bibliothek",
    "tumonline_id": 832
  },
  "5604": {
    "address": {
      "place": "Garching b. M\u00fcnchen",
      "street": "Boltzmannstr. 3",
      "zip_code": 85748
    },
    "area_id": 33,
    "name": "FMI/ Geb\u00e4udeteil  04",
    "tumonline_id": 834
  },
  "5605": {
    "address": {
      "place": "Garching b. M\u00fcnchen",
      "street": "Boltzmannstr. 3",
      "zip_code": 85748
    },
    "area_id": 33,
    "name": "FMI/ Geb\u00e4udeteil  05",
    "tumonline_id": 835
  },
  "5606": {
    "address": {
      "place": "Garching b. M\u00fcnchen",
      "street": "Boltzmannstr. 3",
      "zip_code": 85748
    },
    "area_id": 33,
    "name": "FMI/ Geb\u00e4udeteil  06",
    "tumonline_id": 837
  },
  "5607": {
    "address": {
      "place": "Garching b. M\u00fcnchen",
      "street": "Boltzmannstr. 3",
      "zip_code": 85748
    },
    "area_id": 33,
    "name": "FMI/ Geb\u00e4udeteil  07",
    "tumonline_id": 839
  },
  "5608": {
    "address": {
      "place": "Garching b. M\u00fcnchen",
      "street": "Boltzmannstr. 3",
      "zip_code": 85748
    },
    "area_id": 33,
    "name": "FMI/ Geb\u00e4udeteil  08",
    "tumonline_id": 840
  },
  "5609": {
    "address": {
      "place": "Garching b. M\u00fcnchen",
      "street": "Boltzmannstr. 3",
      "zip_code": 85748
    },
    "area_id": 33,
    "name": "FMI/ Geb\u00e4udeteil  09",
    "tumonline_id": 865
  },
  "5610": {
    "address": {
      "place": "Garching b. M\u00fcnchen",
      "street": "Boltzmannstr. 3",
      "zip_code": 85748
    },
    "area_id": 33,
    "name": "FMI/ Geb\u00e4udeteil  10",
    "tumonline_id": 799
  },
  "5611": {
    "address": {
      "place": "Garching b. M\u00fcnchen",
      "street": "Boltzmannstr. 3",
      "zip_code": 85748
    },
    "area_id": 33,
    "name": "FMI/ Geb\u00e4udeteil  11",
    "tumonline_id": 800
  },
  "5612": {
    "address": {
      "place": "Garching b. M\u00fcnchen",
      "street": "Boltzmannstr. 3",
      "zip_code": 85748
    },
    "area_id": 33,
    "name": "FMI/ Geb\u00e4udeteil  12",
    "tumonline_id": 801
  },
  "5613": {
    "address": {
      "place": "Garching b. M\u00fcnchen",
      "street": "Boltzmannstr. 3",
      "zip_code": 85748
    },
    "area_id": 33,
    "name": "FMI/ Geb\u00e4udeteil  13",
    "tumonline_id": 802
  },
  "5620": {
    "address": {
      "place": "Garching b. M\u00fcnchen",
      "street": "Boltzmannstr. 5",
      "zip_code": 85748
    },
    "area_id": 33,
    "name": "Interims-Audimax",
    "tumonline_id": 1205
  },
  "5622": {
    "address": {
      "place": "Garching b. M\u00fcnchen",
      "street": "Boltzmannstr. 5",
      "zip_code": 85748
    },
    "area_id": 33,
    "name": "Sportanlage Garching/Dusch Container",
    "tumonline_id": 1749
  },
  "5701": {
    "address": {
      "place": "Garching b. M\u00fcnchen",
      "street": "Boltzmannstr. 11",
      "zip_code": 85748
    },
    "area_id": 32,
    "name": "Munich School of BioEngineering (ehm.IME",
    "tumonline_id": 803
  },
  "5901": {
    "address": {
      "place": "Garching b. M\u00fcnchen",
      "street": "Hans-Piloty-Str. 1",
      "zip_code": 85748
    },
    "area_id": 302,
    "name": "Elektro- und Informationstechnik",
    "tumonline_id": 2849
  },
  "5932": {
    "address": {
      "place": "Garching b. M\u00fcnchen",
      "street": "Friedrich-Ludwig-Bauer-Str. 3",
      "zip_code": 85748
    },
    "area_id": 57,
    "name": "Siemens Science Center Garching",
    "tumonline_id": 3169
  },
  "6101": {
    "address": {
      "place": "Garching b. M\u00fcnchen",
      "street": "R\u00f6merhofweg 67",
      "zip_code": 85748
    },
    "area_id": 31,
    "name": "Heizwerk",
    "tumonline_id": 805
  },
  "6102": {
    "address": {
      "place": "Garching b. M\u00fcnchen",
      "street": "R\u00f6merhofweg 67",
      "zip_code": 85748
    },
    "area_id": 31,
    "name": "Betriebsgeb\u00e4ude",
    "tumonline_id": 806
  },
  "6103": {
    "address": {
      "place": "Garching b. M\u00fcnchen",
      "street": "R\u00f6merhofweg 67",
      "zip_code": 85748
    },
    "area_id": 31,
    "name": "Hochspannungsgeb\u00e4ude",
    "tumonline_id": 807
  },
  "6106": {
    "address": {
      "place": "Garching b. M\u00fcnchen",
      "street": "R\u00f6merhofweg 67",
      "zip_code": 85748
    },
    "area_id": 31,
    "name": "Trafostation Betriebsgeb\u00e4ude",
    "tumonline_id": 2409
  },
  "6107": {
    "address": {
      "place": "Garching b. M\u00fcnchen",
      "street": "R\u00f6merhofweg 67",
      "zip_code": 85748
    },
    "area_id": 31,
    "name": "Garagenbau",
    "tumonline_id": 808
  },
  "6202": {
    "address": {
      "place": "Garching b. M\u00fcnchen",
      "street": "R\u00f6merhofweg 67",
      "zip_code": 85748
    },
    "area_id": 38,
    "name": "Feuerwehrwache",
    "tumonline_id": 810
  },
  "7894": {
    "address": {
      "place": "Garching b. M\u00fcnchen",
      "street": "Freisinger Landstr. 52",
      "zip_code": 85748
    },
    "area_id": 57,
    "name": "Newton (AM)",
    "tumonline_id": 3010
  },
  "7895": {
    "address": {
      "place": "Garching b. M\u00fcnchen",
      "street": "Freisinger Landstr. 50",
      "zip_code": 85748
    },
    "area_id": 57,
    "name": "Pascal Halle",
    "tumonline_id": 3089
  },
  "7896": {
    "address": {
      "place": "Garching b. M\u00fcnchen",
      "street": "Freisinger Landstr. 50",
      "zip_code": 85748
    },
    "area_id": 57,
    "name": "MW Halle (AM)",
    "tumonline_id": 3069
  },
  "7910": {
    "address": {
      "place": "Garching b. M\u00fcnchen",
      "street": "Ludwig-Prandtl-Str. 1",
      "zip_code": 85748
    },
    "area_id": 58,
    "name": "Oskar-von-Miller Turm",
    "tumonline_id": 1040
  },
  "8101": {
    "address": {
      "place": "Garching b. M\u00fcnchen",
      "street": "Parkring 11-13",
      "zip_code": 85748
    },
    "area_id": 57,
    "name": "Business Campus Garching (BC1)",
    "tumonline_id": 1038
  },
  "8102": {
    "address": {
      "place": "Garching b. M\u00fcnchen",
      "street": "Parkring 35-39",
      "zip_code": 85748
    },
    "area_id": 57,
    "name": "Business Campus Garching (BC2)",
    "tumonline_id": 1305
  },
  "8104": {
    "address": {
      "place": "Garching b. M\u00fcnchen",
      "street": "Carl-Zeiss-Str. 8",
      "zip_code": 85748
    },
    "area_id": 57,
    "name": "Carl-Zeiss-Stra\u00dfe (AM)",
    "tumonline_id": 3009
  },
  "8111": {
    "address": {
      "place": "Garching b. M\u00fcnchen",
      "street": "Schlei\u00dfheimerstra\u00dfe 90a",
      "zip_code": 85748
    },
    "area_id": 57,
    "name": "Schlei\u00dfheimerstr. 90a",
    "tumonline_id": 1629
  },
  "8120": {
    "address": {
      "place": "Garching b. M\u00fcnchen",
      "street": "Walther-von-Dyck-Str. 10",
      "zip_code": 85748
    },
    "area_id": 202,
    "name": "Conference Center",
    "tumonline_id": 2131
  },
  "8121": {
    "address": {
      "place": "Garching b. M\u00fcnchen",
      "street": "Walther-von-Dyck-Str. 12",
      "zip_code": 85748
    },
    "area_id": 202,
    "name": "Courtyard Hotel",
    "tumonline_id": 2132
  },
  "8122": {
    "address": {
      "place": "Garching b. M\u00fcnchen",
      "street": "Walther-von-Dyck-Str. 6",
      "zip_code": 85748
    },
    "area_id": 202,
    "name": "Galileo B\u00fcro, W. v. Dyck-Str. 6",
    "tumonline_id": 2591
  },
  "8123": {
    "address": {
      "place": "Garching b. M\u00fcnchen",
      "street": "Walther-von-Dyck-Str. 4",
      "zip_code": 85748
    },
    "area_id": 202,
    "name": "Galileo B\u00fcro, W. v. Dyck-Str. 4",
    "tumonline_id": 2590
  },
  "8124": {
    "address": {
      "place": "Garching b. M\u00fcnchen",
      "street": "Walther-von-Dyck-Str. 14",
      "zip_code": 85748
    },
    "area_id": 202,
    "name": "Galileo B\u00fcro, W. v. Dyck-Str. 14",
    "tumonline_id": 3029
  },
  "9001": {
    "address": {
      "place": "Burghausen",
      "street": "Raitenhaslach 11",
      "zip_code": 84489
    },
    "area_id": 183,
    "name": "TUM Science & Study Center Raitenhaslach",
    "tumonline_id": 1775
  },
  "9101": {
    "address": {
      "place": "Garmisch-Partenkirchen",
      "street": "Bahnhofstra\u00dfe 37",
      "zip_code": 82467
    },
    "area_id": 223,
    "name": "Garmisch-Partenkirchen Bahnhofstr. 37 (A",
    "tumonline_id": 2330
  },
  "9201": {
    "address": {
      "place": "Berchtesgaden",
      "street": "Ro\u00dffeldstr.",
      "zip_code": 83471
    },
    "area_id": 263,
    "name": "TUM FZ Friedrich N. Schwarz Berchtesgade",
    "tumonline_id": 2450
  },
  "9376": {
    "address": {
      "place": "Taufkirchen",
      "street": "Willy-Messerschmitt-Str. 1",
      "zip_code": 82024
    },
    "area_id": 29,
    "name": "Airbus Standort 76.C Taufkirchen/Ottobru",
    "tumonline_id": 2490
  },
  "9377": {
    "address": {
      "place": "Ottobrunn",
      "street": "Lise-Meitner-Str. 9-11",
      "zip_code": 85521
    },
    "area_id": 29,
    "name": "Lise-Meitner-Stra\u00dfe (AM)",
    "tumonline_id": 2890
  },
  "9378": {
    "address": {
      "place": "Ottobrunn",
      "street": "Caroline-Herschel-Str. 100",
      "zip_code": 85521
    },
    "area_id": 29,
    "name": "TUM Panasonic (AM)",
    "tumonline_id": 2889
  },
  "9379": {
    "address": {
      "place": "Ottobrunn",
      "street": "Lise-Meitner-Str. 8",
      "zip_code": 85521
    },
    "area_id": 29,
    "name": "Lise Meitner Str. 8 (AM)",
    "tumonline_id": 2949
  },
  "9380": {
    "address": {
      "place": "Ottobrunn",
      "street": "Caroline-Herschel-Str. 100",
      "zip_code": 85521
    },
    "area_id": 29,
    "name": "Hyperloop-Halle Ottobrunn (AM)",
    "tumonline_id": 3109
  },
  "9390": {
    "address": {
      "place": "We\u00dfling",
      "street": "Claude-Dornier-Str. 1",
      "zip_code": 82234
    },
    "area_id": 29,
    "name": "Aviation Flight Test Center/Halle 507 (A",
    "tumonline_id": 3129
  }
}
