building_key,address_place,address_street,address_zip_code,area_id,name,tumonline_id,filter_id
0101,München,Theresienstr. 90,80333,27,(N1) Hörsäle (U-Trakt),561,
0102,München,Theresienstr. 90,80333,27,(N2) Hochvolthaus,562,
0103,München,Theresienstr. 90,80333,27,(N3) El.Masch./Geräte,563,
0104,München,Theresienstr. 90,80333,27,(N4) Elektro Physik,564,
0105,München,Theresienstr. 90,80333,27,(N5) Elektrotechnik,565,
0106,München,Theresienstr. 90,80333,27,(N6) Materialprüfamt,566,
0108,München,Theresienstr. 90,80333,27,(N8) Verfügungsgebäude,567,
0109,München,Theresienstr. 90,80333,27,(N9) Reflexionsarmer Raum,1849,
0201,München,Gabelsbergerstr. 43,80333,26,"(S1) Gabelsbergerstr. 43, StudiTUM",568,
0202,München,Gabelsbergerstr. 39,80333,26,(S2) Gabelsbergerstr. 39,569,
0203,München,Gabelsbergerstr. 45,80333,26,(S3) Gabelsbergerstr. 45,570,
0204,München,Gabelsbergerstr. 49,80333,26,(S4) Gabelsbergerstr. 49,571,
0205,München,Arcisstr. 19,80333,26,(S5) Arcisstr. 19,572,
0206,München,Arcisstr. 17,80333,26,(S6) Mensa Arcisstraße 17,573,
0305,München,Barerstr. 21,80333,25,(Südost 1) Barer Straße 21,574,
0401,München,Richard-Wagner-Str. 18,80333,24,(SW1) Richard-Wagner-Str. 18,575,
0403,München,Richard-Wagner-Str. 14,80333,24,(SW3) Friedrich Schiedel-Kindergarten (L,576,
0501,München,Arcisstr. 21,80333,23,(Z1) Institutsbau,577,
0502,München,Arcisstr. 21,80333,23,(Z2) Zentralgebäude 2,578,
0503,München,Arcisstr. 21,80333,23,(Z3) Thierschbau,579,
0504,München,Arcisstr. 21,80333,23,(Z4) Landwirtschaftsbau,580,
0505,München,Arcisstr. 21,80333,23,(Z5) Wirtschaftswissenschaften,581,
0506,München,Arcisstr. 21,80333,23,(Z6) Theresianum,582,
0507,München,Arcisstr. 21,80333,23,(Z7) Zentralgebäude 7,583,
0508,München,Arcisstr. 21,80333,23,(Z8) Wärmekraftwerk/Hydr.-Inst.,584,
0509,München,Arcisstr. 21,80333,23,(Z9) Neubau Innenhof,585,
0510,München,Arcisstr. 21,80333,23,(Z10) Verwaltungsbau,586,
0511,München,Arcisstr. 21,80333,23,(Z11) Elektro/Werkstatt/Lösungsmittel-Bu,587,
0512,München,Arcisstr. 21,80333,23,(Z12) Garagen,588,
0597,München,Arcisstr. 21,80333,23,Vorplatz Audi-Max,3309,
1501,München,Ismaninger Str. 22,81675,22,Chirurgische Klinik,1037,
1503,München,Ismaningerstr. 22,81675,22,"Augen, HNO, I.Med., III.Med.",1772,
1514,München,Trogerstr. 9,81675,22,Interdisziplinäres Forschungsgebäude,1035,
1533,München,Trogerstr. 8,81675,22,"Trogerstr. 8, Pers.Rar-Sch.beh.",1769,
1536,München,Trogerstr. 14,81675,22,"Trogerstr. 14, Seminargebäude Geschichte",1027,
1538,München,Trogerstr. 18,81675,22,"Trogerstr. 18, Pathologie",1029,
1548,München,Schneckenburgerstr. 8,81675,22,"GSF-Container, Inst. Virologie",1030,
1551,München,Ismaninger Str. 22,81675,22,"A1-Hörsäle, Mensa",1031,
1559,München,Trogerstr. 30,81675,22,Mikrobiologie/Virologie,1033,
1601,München,Biedersteiner Str. 29,80802,21,"Altbau 1, Vorklinik. Inst.",1018,
1602,München,Biedersteiner Str. 29,80802,21,"Altbau 2+3, Anatomisches Institut",1019,
1603,München,Biedersteiner Str. 29,80802,21,"Altbau 2+3, Biologisches Institut",1020,
1607,München,Dietlindenstr./Biedersteiner Str. 29,80802,21,"Altbau 7, Institut für Pharmakologie und",1021,
1608,München,Dietlindenstr./Biedersteiner Str. 29,80802,21,"Altbau 8, Institut für Medizinische Mikr",1022,
1713,München,Nigerstr. 3,81675,29,Nigerstr. 3 (AM),1036,
1724,München,Prinzregentenstraße 68,81675,29,Prinzregentenstr. 68 (AM) MRI,2309,
1740,München,Neherstraße 1,81675,29,Neherstr.1 (AM) ForTe,2909,
1901,Heilbronn,Bildungscampus 2,74076,243,Bildungscampus D,2369,
1902,Heilbronn,Bildungscampus 9,74076,243,Bildungscampus L,2370,
1910,Heilbronn,Weipertstr. 8-10,74076,243,Bildungscampus C,3189,
1912,Heilbronn,Edisonstr. 3,74076,243,Edisonstr.3,3449,
1915,Heilbronn,Etzelstr. 38,74076,243,Bildungscampus/Etzelstr.38,3191,
2103,München,Schragenhofstr. 31,80992,20,Werkstattgebäude,614,
2104,München,Schragenhofstr. 31,80992,20,Laborgebäude,615,
2105,München,Schragenhofstr. 31,80992,20,Trafo und Lager,616,
2106,München,Schragenhofstr. 31,80992,20,Pforte,617,
2107,München,Schragenhofstr. 31,80992,20,Institutsgebäude,618,
2108,München,Schragenhofstr. 31,80992,20,Bunker,619,
2109,München,Schragenhofstr. 31,80992,20,Tankstelle,620,
2309,München,Kolehmainenweg 7,80809,18,(SZ) Tennis Gebäude,607,
2310,München,Kolehmainenweg 7,80809,18,(SZ) Tennisanlagen,608,
2312,München,Am Olympiacampus 11,80809,18,"(SZ) Sport-, Aussenanlagen/Teil-Umbau",610,
2315,München,Am Olympiacampus 12,80809,18,(SZ) Präventionszentrum,612,
2317,München,Am Olympiacampus 11,80809,18,(SZ) Kletterturm Campus im Olympiapark,2769,
2318,München,Am Olympiacampus 11,80809,18,(SZ) Boulderturm im Campus im Olympiapar,2772,
2319,München,Am Olympiacampus 11,80809,18,(SZ) KBA Kletter- und Boulderanlage Outd,2770,
2320,München,Am Olympiacampus 11,80809,18,(SZ) FIA Fitnessanlage Outdoor,2771,
2321,München,Am Olympiacampus 11,80809,18,(SZ) Rasenspielplätze/Teil-Umbauten,613,
2330,München,Am Olympiacampus 11,80809,18,"CiO/SG - rue, Seminarräume",2749,
2331,München,Am Olympiacampus 11,80809,18,"CiO/SG - Hallen West, Cafeteria",2609,
2332,München,Am Olympiacampus 11,80809,18,CiO/SG - Institute Ost,2829,
2333,München,Am Olympiacampus 11,80809,18,CiO/SG - Hallen Ost,2809,
2334,München,Am Olympiacampus 11,80809,18,"CiO/SG - Institute West, Bibliothek",2789,
2350,München,Coubertinplatz 1,80809,18,(SZ) Olympiaschwimmhalle (AM),1015,
2351,München,Spiridon-Louis-Ring 21,80809,18,(SZ) Olympia-Eislaufstadion (AM),1016,
2352,München,Spiridon-Louis-Ring 21,80809,18,(SZ) Olympiapark (AM),1017,
2353,München,Staudingerstr. 17,81735,18,(SZ) Eislaufstadion Ost (AM),1060,
2354,Oberschleißheim,Dachauerstr. 35,85764,18,(SZ) Regattaanlage Oberschleißheim (AM),1039,
2364,München,Am Olympiacampus 11,80809,18,Wetterschutzhaus / WSH 1,3274,
2365,München,Am Olympiacampus 11,80809,18,Wetterschutzhaus / WSH 2,3271,
2367,München,Am Olympiacampus 11,80809,18,Wetterschutzhaus / WSH 4,3270,
2368,München,Am Olympiacampus 11,80809,18,Wetterschutzhaus / WSH 5,3269,
2369,München,Am Olympiacampus 11,80809,18,Wetterschutzhaus / WSH 6,3272,
2401,München,Winzererstr. 45,80797,17,Holzforschung München Altbau,595,
2402,München,Winzererstr. 45,80797,17,Holzforschung München Neubau,596,
2410,München,Heßstr. 134,80797,17,Heßstr. 134 (UMBAU),2210,
2522,München,Einsteinstr. 25,81675,22,Center for Translational Cancer Research,2129,
2601,München,Franz-Langinger-Str. 10,81245,16,Institut für Grundbau  und Bodenmechanik,621,
2602,München,Franz-Langinger-Str. 10,81245,16,Institut für Eisenbahn und Landverkehrsw,622,
2604,München,Franz-Langinger-Str. 10,81245,16,Laborbau,623,
2605,München,Franz-Langinger-Str. 10,81245,16,Verwaltungsbau,624,
2607,München,Franz-Langinger-Str. 10,81245,16,Fahrzeughalle,625,
2801,München,Elisabeth-Winterhalter-Weg 6,81377,15,Elisabeth-Winterhalter-Weg (NR),628,
2803,München,Museumsinsel 1,80538,29,Forum der Zukunft (AM),3049,
2804,München,Museumsinsel 1,80538,29,"Deutsches Museum, Museumsinsel 1 (NR)",593,
2805,Dachau,Karl-Benz-Str. 15,85221,47,"Dachau, Karl-Benz-Str. (AM)",652,
2806,München,Oettingenstr. 15,80538,29,Werkstattgebäude National Museum (NR),594,
2807,München,Barerstr. 40,80799,29,Pinakothek der Moderne (NR),597,
2808,Trostberg,Dr. Albert-Frank-Str. 32,83308,98,Forschungszentrum f. Bauchemie (NR),1445,
2903,München,Augustenstr. 44_46,80333,29,Haus Soller Augustenstr. 44_46 (AM),589,
2906,München,Karlstr. 45-47,80333,29,Karlstraße 45/47 (AM),995,
2907,München,Marsstr. 20-22,80335,29,Marsstr. 20/22 (AM),1485,
2910,München,Richard-Wagner-Str. 1,80333,29,RiWa Nr. 1/Haus B + Haus H,1929,
2911,München,Richard-Wagner-Str. 3,80333,29,RiWa Nr. 3/Haus C,1889,
2912,München,Augustenstr. 40,80333,29,Brienner Forum Haus E (AM),3250,
2913,München,Augustenstr. 40,80333,29,Brienner Forum Haus F(AM),3249,
2920,München,Gabelsbergerstr. 47,80333,29,Gabelsbergerstr. 47 (AM),2189,
2926,München,Leopoldstr. 139/145,80804,29,Leopoldstr. 139/145 (AM),598,
2927,Straubing,Petersgasse 18,94315,50,TUM CS PG18 (AM),878,
2929,Straubing,Schulgasse 20,94315,50,TUM CS SG20 (AM),1525,
2940,München,Georg-Brauchle-Ring 50_66,80992,29,Campus C   (AM),1285,
2941,München,Georg-Brauchle-Ring 60_62,80992,29,Campus D   (AM),1245,
2944,München,Freddie-Mercury-Str. 5,80636,29,Munich Urban Colab,2869,
3100,Mülverstedt,Am Burghof 3,99947,79,Projektbüro Hainich,1545,
3101,Obernach,Obernach/Walchensee 15,82432,49,Obernach Bürogebäude,909,
3102,Obernach,Obernach/Walchensee 15,82432,49,Obernach Vesuchshalle 1,910,
3103,Obernach,Obernach/Walchensee 15,82432,49,Obernach Werkstätten,911,
3104,Obernach,Obernach/Walchensee 15,82432,49,Obernach Unterstelle,912,
3105,Obernach,Obernach/Walchensee 15,82432,49,Obernach Archiv/Bibliothek,913,
3106,Obernach,Obernach/Walchensee 15,82432,49,Obernach Lagerhalle,914,
3107,Obernach,Obernach/Walchensee 15,82432,49,Obernach Freifläche,915,
3108,Obernach,Obernach/Walchensee 15,82432,49,Obernach Blockhaus,916,
3109,Obernach,Obernach/Walchensee 15,82432,49,Obernach Geschiebelager,917,
3110,Obernach,Obernach/Walchensee 15,82432,49,Obernach Steuerhaus,918,
3111,Obernach,Obernach/Walchensee 15,82432,49,Obernach Messhütte,919,
3112,Obernach,Obernach/Walchensee 15,82432,49,Obernach Trafostation,920,
3113,Obernach,Obernach/Walchensee 15,82432,49,Obernach Pumpstation 2,921,
3114,Obernach,Obernach/Walchensee 15,82432,49,Obernach Pumpstation 3,922,
3115,Obernach,Obernach/Walchensee 15,82432,49,Obernach Pumpstation 4,923,
3116,Obernach,Obernach/Walchensee 15,82432,49,Obernach Versuchshalle 2,924,
3117,Obernach,Obernach/Walchensee 15,82432,49,Obernach Holz-/Baulager,925,
3118,Obernach,Obernach/Walchensee 15,82432,49,Obernach Steuerhaus 2,926,
3119,Obernach,Obernach/Walchensee 15,82432,49,Obernach Turbinenhaus,927,
3120,Obernach,Obernach/Walchensee 15,82432,49,Obernach Tiefbrunnen,928,
3121,Obernach,Obernach/Walchensee 15,82432,49,Obernach Modellaustellung,929,
3122,Obernach,Obernach/Walchensee 15,82432,49,Obernach Folienhalle,2509,
3123,Obernach,Obernach/Walchensee 15,82432,49,Obernach Flüssiggastank,2510,
3124,Obernach,Obernach/Walchensee 15,82432,49,Obernach unterirdischer Wasserbehälter,2511,
3201,Eichenau,Lindenweg 15,82223,53,Eichenau Lindenweg Max-Kneißl-Institut,633,
3401,München,Alfons-Goppel-Str. 11,80333,29,Akademiegebäude in der Residenz (NR),1710,
3402,München,Alfons-Goppel-Str. 11,80333,29,Residenzbereich Hofkapelle (NR),1709,
3501,Straubing,Schulgasse 16,94315,50,TUM CS SG16,877,
3502,Straubing,Schulgasse 22,94315,50,TUM CS SG22 (AM),1729,
3503,Straubing,Petersgasse 5,94315,50,TUM CS PG05,2130,
3504,Straubing,Schulgasse 22a,94315,50,TUM CS SG22a,2249,
3505,Straubing,Uferstraße 53,94315,50,TUMCS Hörsaal und Forschungsgebäude für,2649,
3515,Straubing,Am Essigberg 3,94315,50,TUM CS Essigberg 3 (AM),2389,
3901,Starnberg,Unterer Seeweg 5,82319,48,Starnberg Kiosk,645,
3902,Starnberg,Unterer Seeweg 5,82319,48,Starnberg Seglerheim,646,
3904,Starnberg,Unterer Seeweg 5,82319,48,Starnberg Bootshaus,644,
4001,Freising,Oberer Schlangenweg,85354,43,Ruine der Korbinians Kapelle,2049,
4101,Freising,Alte Akademie 1-3,85354,43,Verwaltungsstelle / BLQ Brau- und Lebens,715,
4102,Freising,Alte Akademie 8,85354,43,Hörsaal- und Dekanatsgebäude,716,
4103,Freising,Alte Akademie 8a,85354,43,Sammlungsbau,717,
4105,Freising,Alte Akademie 12,85354,43,Institutsgebäude I,719,
4106,Freising,Alte Akademie 14,85354,43,Institutsgebäude II,720,
4107,Freising,Alte Akademie 16,85354,43,Institutsgebäude III,721,
4108,Freising,Alte Akademie 10,85354,43,"BLQ Lebensmittelsicherheit, Hörsaal 8&9",722,
4109,Freising,Weihenstephaner Steig 22,85354,43,Campus Office,723,
4110,Freising,Weihenstephaner Steig 20,85354,43,Brau- und Getränketechnologie,724,
4111,Freising,Weihenstephaner Steig 18,85354,43,Forschungsbrauerei Weihenstephan - mit N,725,
4113,Freising,Weihenstephaner Steig 16,85354,43,StudiTUM Weihenstephan,693,
4114,Freising,Weihenstephaner Steig 14,85354,43,ehm. Bauhof,694,
4115,Freising,Weihenstephaner Steig 19,85350,43,Familienservice,653,
4116,Freising,Weihenstephaner Steig 17,85354,43,Kindervilla (Dr. Gudula Wernekke-Rastett,695,
4117,Freising,Weihenstephaner Steig 17,85354,43,Kindervilla II,1325,
4119,Freising,Hohenbachernstr. 17,85354,42,Hohenbachernstraße 17,727,
4120,Freising,Hohenbachernstr. 15,85354,42,Hohenbachernstraße 15,701,
4124,Freising,Weihenstephaner Berg 3,85354,43,Molekulare Biowissenschaften (ZIEL II),696,
4126,Freising,Weihenstephaner Berg 1,85354,43,ZIEL I - Zentralinstitut für Ernährung-,697,
4128,Freising,Am Hofgarten,85354,43,"Trafostation I, Am Löwentor",699,
4129,Freising,Mühlenweg 22,85354,138,Aquatische Systembiologie,1465,
4130,Freising,Weihenstephaner Berg 13,85354,43,Trafostation IV (Sprachlabor),1225,
4131,Freising,Mühlenweg 22,85354,138,"Aquatische Systembiologie ""Mühle""",1466,
4132,Freising,Mühlenweg 18,85354,138,"Aquatische Systembiologie ""Wagnerhaus""",1669,
4153,Freising,Weihenstephaner Berg 13,85354,43,Hochschulsport / Sprachenzentrum,700,
4155,Freising,Weihenstephaner Berg,85354,43,Kustermannhalle,2170,
4156,Freising,Weihenstephaner Berg 21,85354,43,Flaschenkeller Staatsbrauerei,2151,
4180,Freising,Staatsgut Veitshof,85354,44,Veitshof Verwaltungsgebäude,660,
4181,Freising,Staatsgut Veitshof,85354,44,Veitshof Maschinenhalle,661,
4183,Freising,Staatsgut Veitshof,85354,44,Veitshof Wohnung/Garage,663,
4186,Freising,Staatsgut Veitshof,85354,44,Veitshof Gärfuttersilo,707,
4187,Freising,Staatsgut Veitshof,85354,44,Veitshof Dungsilo,708,
4188,Freising,Staatsgut Veitshof,85354,44,Veitshof Fahrsilo,709,
4189,Freising,Staatsgut Veitshof,85354,44,Veitshof Strohlagerhalle,710,
4191,Freising,Staatsgut Veitshof,85354,44,Veitshof Fahrsilo,712,
4192,Freising,Staatsgut Veitshof,85354,44,Veitshof ehem. Wasserwerk,1789,
4202,Freising,Liesel-Beckmann-Str.,85354,42,Trafostation V,2149,
4205,Freising,Gregor-Mendel-Straße 1,85354,42,Servicegebäude II,691,
4210,Freising,Dürnast 10,85354,39,Agrarsystemtechnik,726,
4211,Freising,Vöttinger Str. 36,85354,42,LfL Bürogebäude 14,1140,
4212,Freising,Emil-Erlenmeyer-Forum 5,85354,42,Chemie Bioanalytik Peptidbiochemie,679,
4213,Freising,Maximus-von-Imhof-Forum 2,85354,42,Lebensmitteltechnikum,680,
4214,Freising,Maximus-von-Imhof-Forum 6,85354,42,Zentrales Hörsaalgebäude,681,
4215,Freising,Maximus-von-Imhof-Forum 4,85354,42,Zentrales Praktikagebäude,682,
4216,Freising,Maximus-von-Imhof-Forum 5,85354,42,Mensa Weihenstephan,683,
4217,Freising,Emil-Ramann-Str. 2,85354,42,Pflanzenproduktion 1,684,
4218,Freising,Emil-Ramann-Str. 4,85354,42,Biologikum Weihenstephan,685,
4219,Freising,Emil-Ramann-Str. 6,85354,42,Landschaft,686,
4220,Freising,Maximus-von-Imhof-Forum 1+3,85354,42,Bibliothek Pressestelle Datenverarbeitun,687,
4221,Freising,Emil-Erlenmeyer-Forum 7,85354,42,Fernmeldezentrale,688,
4222,Freising,Vöttinger Str. 40,85354,42,Servicegebäude I,2929,
4223,Freising,Emil-Ramann-Str. 8,85354,42,Genetik,689,
4224,Freising,Gregor-Mendel-Str. 2,85354,42,ZIEL IV - Biowissenschaften,690,
4225,Freising,Lise-Meitner-Str. 34,85354,138,Lebensmittelchemie u.Molekulare Sensorik,1467,
4226,Freising,Gregor-Mendel-Str. 4,85354,42,iGZW intern.Getränkewissenschaftliches Z,1160,
4230,Freising,Dürnast 11,85354,39,Dürnast Versuchsstation Tierst.,903,
4231,Freising,Dürnast 7,85354,39,Dürnast I,904,
4232,Freising,Dürnast 8,85354,39,Dürnast II,905,
4234,Freising,Dürnast 9,85354,39,Dürnast III,907,
4235,Freising,Dürnast 10,85354,39,Dürnast IV,908,
4236,Freising,Dürnast 6,85354,39,Dürnast Wohnhaus,902,
4237,Freising,Dürnast 3,85354,39,Dürnast Werkdienstwohnung,887,
4238,Freising,Emil-Erlenmeyer-Forum 2,85354,42,Werkfeuerwehr Weihenstephan,714,
4239,Freising,Emil-Erlenmeyer-Forum 4,85354,42,"Kindergarten ""Krabbelstube Weihenstephan",667,
4254,Freising,Emil-Erlenmeyer-Forum 6,85354,42,Dienstleister / Eltern-Kind,971,
4259,Freising,Emil-Erlenmeyer-Forum 8,85354,42,Salzlager,2109,
4264,Freising,Emil-Erlenmeyer-Forum 8,85354,42,Fachschaftenhaus,993,
4267,Freising,Emil-Erlenmeyer-Forum 6,85354,42,Feuerwache II,2089,
4275,Freising,An der Mühle 20,85354,138,TUMmesa,1909,
4277,Freising,Hans-Carl-von-Carlowitz-Platz 2,85354,42,Forstwissenschaften,668,
4278,Freising,Hans-Carl-von-Carlowitz-Platz 1,85354,42,LWF Bay. Landesanstalt für Wald und Fors,728,
4279,Freising,Hans-Carl-von-Carlowitz Platz 4,85354,282,LWF Erweiterungsbau,2549,
4281,Freising,Am Staudengarten 1,85354,42,HSWT,2152,
4304,Freising,Lange Point 51,85354,41,Verwaltung der TUM - Immobilien,670,
4307,Freising,Liesel-Beckmann-Str. 6,85354,41,Dienstleistergebäude,673,
4308,Freising,Liesel-Beckmann-Str. 4,85354,41,Humanbiologie Zoologie,674,
4309,Freising,Blumenstr. 16,85354,41,Inst. Geb. Wirschaftslehre d. Gartenbaus,675,
4310,Freising,Blumenstr. 16,85354,41,Werkst. u. Garagen Zierpflanzenbau,676,
4311,Freising,Blumenstr. 16,85354,41,Inst. Zierplanzenbau,677,
4314,Freising,Am Staudengarten,85354,41,Trafostation  VII,886,
4315,Freising,Lange Point 51,85354,41,Lagerhalle (Straßenseite),658,
4316,Freising,Lange Point 51,85354,41,Lagerhalle (Feldseite),2512,
4317,Freising,Liesel-Beckmann-Str. 1,85354,41,Tierwissenschaften,657,
4318,Freising,Liesel-Beckmann-Str. 2,85354,41,HEZ Hans-Eisenmann-Zentrum für Agrarwiss,1161,
4319,Freising,Liesel-Beckmann-Str.,85354,41,Trafostation VI,1505,
4320,Freising,Lange Point 20+22,85354,41,Energiezentrale Heizhaus,2329,
4321,Freising,Lange Point 24,85354,41,GM Verwaltung,654,
4322,Freising,Lange Point 24,85354,41,GMTrafostation XV / Carport,655,
4323,Freising,Lange Point 24,85354,41,GM KFZ Werkstatt,656,
4324,Freising,Lange Point 20+22,85354,41,GM Garage / Werkdienstwohnungen,659,
4325,Freising,Lange Point 24,85354,41,GM Wertstoffhof,2349,
4330,Freising,Liesel-Beckmann-Str. 3,85354,41,ZIP – Zentrum für Infektionsprävention,3529,
4331,Freising,Liesel-Beckmann-Str. 3,85354,41,ZIP-Nebengebäude,3569,
4353,Freising,Lange Point 4,85354,41,LfL Laborgebäude 1,2173,
4355,Freising,Zur Kreutzbreite 4,85354,41,LfL Technologie VI,2169,
4361,Freising,Am Gereuth 5,85354,41,LfL Technologie V,2174,
4362,Freising,Lange Point 10,85354,41,LfL Mehrzweckgebäude 1,2172,
4368,Freising,Am Gereuth 6,85354,41,LfL Technologie III,2171,
4387,Freising,Wippenhauserstr. 51,85354,41,Camerloher Gymnasium,2150,
4401,Iffeldorf,Hofmark 3,82393,51,Limnologische Station,650,
4402,Iffeldorf,Hofmark 3,82393,51,Bootshaus,651,
4403,Iffeldorf,Hofmark 3,82393,51,Limnologische Station Gebäude 2,649,
4404,Iffeldorf,Hofmark 3,82393,51,Limnologische Station Seminargebäude,647,
4405,Iffeldorf,Hofmark 3,82393,51,Limnologische Station Remise,648,
4501,Freising,Dürnast 1-2,85354,39,Dürnast Arbeiterwohngebäude STG.WST.,888,
4502,Freising,Dürnast 1,85354,39,Dürnast Werkstattgebäude-Wirt. Geb. STG.,889,
4503,Freising,Dürnast 4-5,85354,39,"Dürnast -Verw.-, WGB., RS., S.-STG.WST.",890,
4505,Freising,Dürnast 5,85354,39,"Dürnast Maschinenhalle STG.WST.-Kart, La",892,
4506,Freising,Dürnast 5,85354,39,Dürnast Schuppen STG.WST.,893,
4508,Freising,Dürnast 1,85354,39,Dürnast Wagenh. m. Fuhrw. W. STG.WST.,897,
4509,Freising,Staatsgut Weihenstephan,85354,39,Dürnast Fahrsilo-Güllebehälter STG.WST.,898,
4510,Freising,Dürnast 1,85354,39,Dürnast Getreidekasten STG.WST.,899,
4512,Freising,Dürnast 5,85354,39,Dürnast Gerätehalle West,2029,
4513,Freising,Dürnast 5,85354,39,Dürnast Gerätehalle Ost,2030,
4521,Kranzberg,Viehhausen 4,85402,39,Viehhausen Maschinenhalle,900,
4522,Kranzberg,Viehhausen 4,85402,39,Viehhausen Landwirtschafliche Freifläche,901,
4523,Kranzberg,Viehhausen 4,85402,39,Viehhausen Mehrzweckhalle,894,
4524,Kranzberg,Viehhausen 4,85402,39,Viehhausen Tankstelle Viehhof STG.WST.,895,
4601,Kranzberg,Staatsgut Thalhausen,85402,54,VST.Thalh.-Wohngebäude (Wohnhaus 1-3),737,
4602,Kranzberg,Staatsgut Thalhausen,85402,54,VST.Thalh.-Zentralgebäude (Verwaltung),738,
4603,Kranzberg,Staatsgut Thalhausen,85402,54,VST.Thalh.-Betriebsgebäude (Werkstattgeb,739,
4604,Kranzberg,Staatsgut Thalhausen,85402,54,VST.Thalh.-Maschinenhalle,740,
4606,Kranzberg,Staatsgut Thalhausen,85402,54,VST.Thalh.-Futterzentrale,742,
4616,Kranzberg,Staatsgut Thalhausen,85402,54,VST.Thalh.-Güllebehälter,734,
4620,Kranzberg,Staatsgut Thalhausen,85402,54,VST.Thalh.-Versuchsfelder,735,
4800,Freising,Acheringer Hauptstr. 32a,85354,138,Halle Achering (Mühlich),2589,
4801,Eitting,Staatsgut Grünschwaige,85462,56,VSG.Grünschw.-Verwaltungsgebäude,780,
4802,Eitting,Staatsgut Grünschwaige,85462,56,VSG.Grünschw.-Mehrzweckhalle,779,
4803,Eitting,Staatsgut Grünschwaige,85462,56,VSG.Grünschw.-Schweinestall,766,
4804,Eitting,Staatsgut Grünschwaige,85462,56,VSG.Grünschw.-Getreidelager,767,
4805,Eitting,Staatsgut Grünschwaige,85462,56,VSG.Grünschw.-Futtersilo,768,
4806,Eitting,Staatsgut Grünschwaige,85462,56,VSG.Grünschw.-Schafstall,769,
4807,Eitting,Staatsgut Grünschwaige,85462,56,VSG.Grünschw.-Lagerscheune,770,
4808,Eitting,Staatsgut Grünschwaige,85462,56,VSG.Grünschw.-Stallgebäude,771,
4809,Eitting,Staatsgut Grünschwaige,85462,56,VSG.Grünschw.-Gerätescheune,772,
4810,Eitting,Staatsgut Grünschwaige,85462,56,VSG.Grünschw.-Strohscheune,773,
4811,Eitting,Staatsgut Grünschwaige,85462,56,VSG.Grünschw.-Strohscheune,774,
4812,Eitting,Staatsgut Grünschwaige,85462,56,VSG.Grünschw.-Maschinenhalle,775,
4813,Eitting,Staatsgut Grünschwaige,85462,56,VSG.Grünschw.-Baur-Haus,776,
4814,Eitting,Staatsgut Grünschwaige,85462,56,VSG.Grünschw.-Fahrsilo,777,
4815,Eitting,Staatsgut Grünschwaige,85462,56,VSG.Grünschw.-Grastrockner,778,
4901,Eichenau,Oberroggenstein 1,82223,52,"VSG.Roggst.-2Wgb, Verw., VTS",634,
4902,Eichenau,Oberroggenstein 1,82223,52,VSG.Roggst.-Doktor. Haus,635,
4903,Eichenau,Oberroggenstein 1,82223,52,"VSG.Roggst.-Schw.St., Wirtg.",636,
4907,Emmering,Unterroggenstein 1-3,82275,52,VSG.Roggst.-Wirtschaftsgebäude,637,
4908,Emmering,Unterroggenstein 1-3,82275,52,VSG.Roggst.-Wagenremise,638,
4909,Emmering,Unterroggenstein 1-3,82275,52,"VSG.Roggst.-Maschinen, Dünger",639,
4910,Emmering,Unterroggenstein 1-3,82275,52,VSG.Roggenst.-Getreidesilo,640,
4914,Olching,Roggensteiner Straße 187,82140,52,"VSG.Roggst.-Arb.Gba. 1, SCHP",643,
4915,Olching,Roggensteiner Straße 189,82140,52,"VSG.Roggst.-Arb.Gba. 2, SCHP",632,
4916,Olching,Roggensteiner Straße 193,82140,52,"VSG.Roggst.-Arb.Gba. 3, SCHP",629,
4920,Eichenau,Oberroggenstein 1,82223,52,Kapelle,631,
5101,Garching b. München,James-Franck-Str. 1,85748,35,Physik I,785,
5103,Garching b. München,Boltzmannstr. 10,85748,35,Betriebsgebäude II,786,
5104,Garching b. München,Boltzmannstr. 16,85748,35,RCM-Technikum,787,
5107,Garching b. München,Am Coulombwall 2,85748,35,Physik II,789,
5108,Garching b. München,James-Franck-Str. 1,85748,35,"Physik II Messbunker UGL,ISL,TOM",781,
5109,Garching b. München,Am Coulombwall 1,85748,35,Physik LMU,872,
5111,Garching b. München,Am Coulombwall 3,85748,35,Siedlungswasserwirtschaft,790,
5112,Garching b. München,Am Coulombwall 4,85748,35,Walter-Schottky-Institut,791,
5115,Garching b. München,Am Coulombwall 4a,85748,35,Zentrum für Nanotechnologie & -materiali,1080,
5116,Garching b. München,Am Coulombwall 4a,85748,35,Trafostation des ZNN,1100,
5117,Garching b. München,Paula-Hahn-Weinheimerstr. 1,85748,35,Verfügungsgebäude PH,3369,
5120,Garching b. München,Am Coulombwall 6,85748,35,Physik Beschleuniger LMU,873,
5121,Garching b. München,Am Coulombwall 6,85748,35,Atlashalle LMU,874,
5123,Garching b. München,Am Coulombwall 1,85748,35,Physik Werkstattgebäude LMU,875,
5124,Garching b. München,James-Franck-Str. 1,85748,35,WSI Container,792,
5125,Garching b. München,Am Coloumbwall 1a,85748,35,LEX  (LMU),1425,
5126,Garching b. München,Am Coloumbwall 1b,85748,35,CALA (LMU),2069,
5128,Garching b. München,Am Coulombwall 3A,85748,35,Zentrum f. Quantum Engineering,3329,
5130,Garching b. München,Boltzmannstr. 10a,85748,35,Telefonzentrale,783,
5131,Garching b. München,Boltzmannstr. 10b,85748,35,FRM-Poststelle (Container),1609,
5132,Garching b. München,Boltzmannstr. 12,85748,35,Center f.Organoid Systems & Tissue Engin,3349,
5140,Garching b. München,James-Frank-Str. 1,85748,35,PH I Container,1365,
5142,Garching b. München,Paula-Hahn-Weinheimer-Str. 4,85748,35,Parkhaus P1,2289,
5143,Garching b. München,Paula-Hahn-Weinheimer-Str. 2,85748,35,Versorgungsstation PH,2429,
5160,Garching b. München,Am Coulombwall 6,85748,35,UCN-Testanlage (Container),1870,
5202,Garching b. München,Lichtenbergstr. 1,85748,37,Flachbau 2+3 (Zyklotron),784,
5203,Garching b. München,Walther-Meißner-Str. 1,85748,37,Bürogebäude,794,
5204,Garching b. München,Walther-Meißner-Str. 4,85748,37,Umformtechnik und Gießereiwesen (MW25),795,
5212,Garching b. München,Walther-Meißner-Str. 3,85748,37,RCM-Hauptbau,883,
5219,Garching b. München,Walther-Meißner-Str. 2,85748,37,Verwaltung der TUM,856,
5251,Garching b. München,Walther-Meißner-Str. 3,85748,37,RCM-Abwassergebäude,881,
5252,Garching b. München,Walther-Meißner-Str. 3,85748,37,RCM-Gasversorgungsstation,882,
5257,Garching b. München,Lichtenbergstr. 1,85748,37,Werkstatt u. Bürogebäude FRM II (UYW),2449,
5301,Garching b. München,Lichtenbergstr. 2a,85748,30,"IAS, Institut für Advanced Study",1120,
5302,Garching b. München,Lichtenbergstr. 2,85748,30,CBM Centrum Baustoffe und Materialprüfun,816,
5304,Garching b. München,Boltzmannstr. 19,85748,30,Mensa Garching (Neubau),2009,
5305,Garching b. München,Lichtenbergstr. 2c,85748,30,Modulbau NDB 2,3209,
5401,Garching b. München,Lichtenbergstr. 4,85748,36,"Bibliothek, Hörsaal CH 1",818,
5402,Garching b. München,Lichtenbergstr. 4,85748,36,Laborgebäude CH 2,819,
5403,Garching b. München,Lichtenbergstr. 4,85748,36,Laborgebäude CH 3,821,
5404,Garching b. München,Lichtenbergstr. 4,85748,36,Hofgebäude 2,815,
5406,Garching b. München,Lichtenbergstr. 4,85748,36,Laborgebäude CH 6,824,
5407,Garching b. München,Lichtenbergstr. 4,85748,36,Laborgebäude CH 7,826,
5408,Garching b. München,Lichtenbergstr. 4,85748,36,Hofgebäude 1,828,
5409,Garching b. München,Ernst-Otto-Fischer-Str. 4,85748,36,Entsorgungszentrum,830,
5410,Garching b. München,Ernst-Otto-Fischer-Str. 1,85748,36,Katalysezentrum,1405,
5413,Garching b. München,Ernst-Otto-Fischer-Str. 2,85748,36,Bayerisches NMR-Zentrum,1989,
5414,Garching b. München,Lichtenbergstr. 4a,85748,36,Zentrum für Energie u. Information (ZEI),1670,
5415,Garching b. München,Ernst-Otto-Fischer-Str. 8,85748,36,CPA Center for Functional Protein Assemb,2729,
5416,Garching b. München,Lichtenbergstr. 2b,85748,36,Interims Hörsäle II,2269,
5417,Garching b. München,Lichtenbergstr. 4b,85748,36,Interim Gebäude NAT / OCS,3429,
5433,Garching b. München,Lichtenbergstr. 6,85748,36,Entreprenieurship Centrum (ECM),1649,
5501,Garching b. München,Boltzmannstr. 15,85748,34,Institut f. Mechatronik,833,
5502,Garching b. München,Boltzmannstr. 15,85748,34,Institut f. Werkst. u. Verarbeitung,836,
5503,Garching b. München,Boltzmannstr. 15,85748,34,Institut f. Produktionstechnik,838,
5504,Garching b. München,Boltzmannstr. 15,85748,34,Institut f. Verfahrenstechnik,841,
5505,Garching b. München,Boltzmannstr. 15,85748,34,Institut f. Maschinentechnik,843,
5506,Garching b. München,Boltzmannstr. 15,85748,34,Institut f. Luft-u. Raumfahrt,845,
5507,Garching b. München,Boltzmannstr. 15,85748,34,Institut f. Energietechnik,844,
5508,Garching b. München,Boltzmannstr. 15,85748,34,Hörsaal West,846,
5509,Garching b. München,Boltzmannstr. 15,85748,34,Magistrale,2569,
5510,Garching b. München,Boltzmannstr. 15,85748,34,"Hörsaal, Bibliothek u. Verwaltungsgebäud",842,
5512,Garching b. München,Boltzmannstr. 15,85748,34,Außenflächen MW,3409,
5513,Garching b. München,Boltzmannstr. 15,85748,34,Energiezentrale,817,
5514,Garching b. München,Boltzmannstr. 15,85748,34,Kinderkrippe,820,
5515,Garching b. München,Boltzmannstr. 15,85748,34,Zentrum für Schlüsselkompetenzen,822,
5517,Garching b. München,Boltzmannstr. 15,85748,34,Prüfstandgebäude,825,
5518,Garching b. München,Boltzmannstr. 15,85748,34,Gasflaschenlager,827,
5519,Garching b. München,Boltzmannstr. 15,85748,34,FTM Fahrzeughalle,1949,
5530,Garching b. München,Boltzmannstr. 17,85748,34,"IGSSE, Exzellenzzentrum Garching",992,
5531,Garching b. München,Lichtenbergstr. 9,85748,34,Ingeborg Ortner-Kinderhaus,1165,
5532,Garching b. München,Lichtenbergstr. 3,85748,34,StudiTUM-Garching,2229,
5539,Garching b. München,Boltzmannstr. 15,85748,34,Interims-Tentomax MW,3149,
5601,Garching b. München,Boltzmannstr. 3,85748,33,FMI/ Magistrale,829,
5602,Garching b. München,Boltzmannstr. 3,85748,33,FMI/ Hörsaal 1,831,
5603,Garching b. München,Boltzmannstr. 3,85748,33,FMI/ Bibliothek,832,
5604,Garching b. München,Boltzmannstr. 3,85748,33,FMI/ Gebäudeteil  04,834,
5605,Garching b. München,Boltzmannstr. 3,85748,33,FMI/ Gebäudeteil  05,835,
5606,Garching b. München,Boltzmannstr. 3,85748,33,FMI/ Gebäudeteil  06,837,
5607,Garching b. München,Boltzmannstr. 3,85748,33,FMI/ Gebäudeteil  07,839,
5608,Garching b. München,Boltzmannstr. 3,85748,33,FMI/ Gebäudeteil  08,840,
5609,Garching b. München,Boltzmannstr. 3,85748,33,FMI/ Gebäudeteil  09,865,
5610,Garching b. München,Boltzmannstr. 3,85748,33,FMI/ Gebäudeteil  10,799,
5611,Garching b. München,Boltzmannstr. 3,85748,33,FMI/ Gebäudeteil  11,800,
5612,Garching b. München,Boltzmannstr. 3,85748,33,FMI/ Gebäudeteil  12,801,
5613,Garching b. München,Boltzmannstr. 3,85748,33,FMI/ Gebäudeteil  13,802,
5620,Garching b. München,Boltzmannstr. 5,85748,33,Interims-Audimax,1205,
5622,Garching b. München,Boltzmannstr. 5,85748,33,Sportanlage Garching/Dusch Container,1749,
5701,Garching b. München,Boltzmannstr. 11,85748,32,Munich School of BioEngineering (ehm.IME,803,
5901,Garching b. München,Hans-Piloty-Str. 1,85748,302,Elektro- und Informationstechnik,2849,
5932,Garching b. München,Friedrich-Ludwig-Bauer-Str. 3,85748,57,Siemens Technology Center (STC),3169,
5933,Garching b. München,Friedrich-Ludwig-Bauer-Str. 5,85748,57,SAP Labs Munich (AM),3229,
6101,Garching b. München,Römerhofweg 67,85748,31,Heizwerk,805,
6102,Garching b. München,Römerhofweg 67,85748,31,Betriebsgebäude,806,
6103,Garching b. München,Römerhofweg 67,85748,31,Hochspannungsgebäude,807,
6106,Garching b. München,Römerhofweg 67,85748,31,Trafostation Betriebsgebäude,2409,
6107,Garching b. München,Römerhofweg 67,85748,31,Garagenbau,808,
6202,Garching b. München,Römerhofweg 67,85748,38,Feuerwehrwache,810,
7894,Garching b. München,Freisinger Landstr. 52,85748,57,Newton (AM),3010,
7895,Garching b. München,Freisinger Landstr. 50,85748,57,Pascal Halle,3089,
7896,Garching b. München,Freisinger Landstr. 50,85748,57,MW Halle (AM),3069,
7910,Garching b. München,Anna-Boyksen-Straße,85748,58,Oskar-von-Miller Turm,1040,
8101,Garching b. München,Parkring 11-13,85748,57,Business Campus Garching (BC1),1038,
8102,Garching b. München,Parkring 35-39,85748,57,Business Campus Garching (BC2),1305,
8104,Garching b. München,Carl-Zeiss-Str. 8,85748,57,Carl-Zeiss-Straße (AM),3009,
8111,Garching b. München,Schleißheimerstraße 90a,85748,57,Schleißheimerstr. 90a,1629,
8120,Garching b. München,Walther-von-Dyck-Str. 10,85748,202,Conference Center,2131,
8121,Garching b. München,Walther-von-Dyck-Str. 12,85748,202,Courtyard Hotel,2132,
8122,Garching b. München,Walther-von-Dyck-Str. 6,85748,202,"Galileo Büro, W. v. Dyck-Str. 6",2591,
8123,Garching b. München,Walther-von-Dyck-Str. 4,85748,202,"Galileo Büro, W. v. Dyck-Str. 4",2590,
8124,Garching b. München,Walther-von-Dyck-Str. 14,85748,202,"Galileo Büro, W. v. Dyck-Str. 14",3029,
9001,Burghausen,Raitenhaslach 11,84489,183,TUM Science & Study Center Raitenhaslach,1775,
9101,Garmisch-Partenkirchen,Bahnhofstraße 37,82467,223,Garmisch-Partenkirchen Bahnhofstr. 37 (A,2330,
9110,Garmisch-Partenkirchen,Breitenauerstraße 1a,82467,223,GP Geigergebäude,3469,
9201,Berchtesgaden,Roßfeldstr.,83471,263,TUM FZ Friedrich N. Schwarz Berchtesgade,2450,
9344,Weßling,Claude-Dornier-Str. 1,82234,29,Lärmschutzhalle 344,3589,
9377,Ottobrunn,Lise-Meitner-Str. 9-11,85521,29,Lise-Meitner-Straße (AM),2890,
9378,Ottobrunn,Caroline-Herschel-Str. 100,85521,29,TUM Panasonic (AM),2889,
9379,Ottobrunn,Lise-Meitner-Str. 8,85521,29,Lise Meitner Str. 8 (AM),2949,
9380,Ottobrunn,Caroline-Herschel-Str. 100,85521,29,Hyperloop-Halle Ottobrunn (AM),3109,
9386,Taufkirchen,Willy-Messerschmitt 11,82024,29,Willy-Messerschmitt-Str. 11 (AM),3489,
9387,Taufkirchen,Willy-Messerschmitt-Straße 5,82024,29,Hörsaalgebäude,3551,
9389,Taufkirchen,Willy-Messerschmitt-Straße 5,82024,29,Betriebsgebäude,3549,
9390,Weßling,Claude-Dornier-Str. 1,82234,29,Aviation Flight Test Center/Halle 507 (A,3129,
9510,Freising,LabCampus 48,85356,29,LabCampus 48 (AM),3609,
9511,Freising,LabCampus 52,85356,29,LabCampus 52 (AM),3610,
